"Museumsname"	"Standort"	"Lat"	"Long"	"Objektbezeichnung"	"origin"	"Lat_origin"	"Long_origin"
"Heimatmuseum"	"Ahlen"	"51.76159"	"7.88892"	"Vase"	"China/Deutschland (vermutlich)"	"39.9064"	"116.3913"
"Sauerland-Museum"	"Arnsberg"	"51.39693"	"8.06497"	"Teekanne mit Deckel (Steingut)"	"England"	"51.5124"	"-0.1196"
"Wittgensteiner Heimathaus"	"Bad Berleburg"	"51.07838"	"8.49880"	"2 Schüsseln"	NA	"39.9064"	"116.3913"
"Historisches Museum"	"Bielefeld"	"52.02271"	"8.54417"	"Vase"	NA	"42.52"	"122.61"
"Heimatkundliche Slg."	"Castrop-Rauxel"	"51.56413"	"7.30981"	"Chinesische Lackmalerei: Die Gebirgslandschaft"	NA	"42.52"	"122.61"
"Heimatmuseum Coesfeld"	"Coesfeld"	"51.94701"	"7.17257"	"Blaudruckmodel"	"Indien"	"28.5635"	"77.1528"
"Heimatmuseum Coesfeld"	"Coesfeld"	"51.94701"	"7.17257"	"Blaudruckmodel"	"Indien"	"28.5635"	"77.1528"
"Heimatmuseum Coesfeld"	"Coesfeld"	"51.94701"	"7.17257"	"Blaudruckmodel"	"Indien"	"28.5635"	"77.1528"
"Heimatmuseum Coesfeld"	"Coesfeld"	"51.94701"	"7.17257"	"Blaudruckmodel"	"Indien"	"28.5635"	"77.1528"
"Heimatmuseum Coesfeld"	"Coesfeld"	"51.94701"	"7.17257"	"Blaudruckmodel"	"Indien"	"28.5635"	"77.1528"
"Heimatmuseum Coesfeld"	"Coesfeld"	"51.94701"	"7.17257"	"Blaudruckmodel"	"Indien"	"28.5635"	"77.1528"
"Heimatmuseum Coesfeld"	"Coesfeld"	"51.94701"	"7.17257"	"Blaudruckmodel"	"Indien"	"28.5635"	"77.1528"
"Heimatmuseum Coesfeld"	"Coesfeld"	"51.94701"	"7.17257"	"Blaudruckmodel"	"Indien"	"28.5635"	"77.1528"
"Heimatmuseum Coesfeld"	"Coesfeld"	"51.94701"	"7.17257"	"Blaudruckmodel"	"Indien"	"28.5635"	"77.1528"
"Heimatmuseum Coesfeld"	"Coesfeld"	"51.94701"	"7.17257"	"Blaudruckmodel"	"Indien"	"28.5635"	"77.1528"
"Heimatmuseum Coesfeld"	"Coesfeld"	"51.94701"	"7.17257"	"Blaudruckmodel"	"Indien"	"28.5635"	"77.1528"
"Heimatmuseum Coesfeld"	"Coesfeld"	"51.94701"	"7.17257"	"Blaudruckmodel"	"Indien"	"28.5635"	"77.1528"
"Museum Höxter"	"Corvey"	"51.77859"	"9.41001"	"1/10 GULDEN"	"Niederländ. lndien"	"28.5635"	"77.1528"
"Museum Höxter"	"Corvey"	"51.77859"	"9.41001"	"Regionalmünzen Indien"	"Indien"	"28.5635"	"77.1528"
"Museum Höxter"	"Corvey"	"51.77859"	"9.41001"	"Regionalmünzen Indien"	"Indien"	"28.5635"	"77.1528"
"Museum Höxter"	"Corvey"	"51.77859"	"9.41001"	"KÄSCH"	"China"	"39.9064"	"116.3913"
"Korbmacher-Museum"	"Dalhausen"	"51.626016"	"9.2911"	"Mission"	NA	"51.6273"	"9.2928"
"Stadtmuseum"	"Dorsten"	"51.74339"	"6.99914"	"Englischer Kolonialsäbel - Nachbildung"	NA	"28.5635"	"77.1528"
"Heimatmuseum Emsdetten August Holländer Museum"	"Emsdetten"	"52.17348"	"7.53146"	"schwert"	"Orient or Afrika"	"21.9609"	"19.6463"
"Museum der Stadt Gladbeck, Schloss Wittringen"	"Gladbeck"	"51.56029"	"6.98148"	"Dose"	"China"	"39.9064"	"116.3913"
"Stadtmuseum"	"Gütersloh"	"51.90635"	"8.38033"	"Zeitung: Dekofei"	NA	"52.5173"	"13.3889"
"Stadtmuseum"	"Gütersloh"	"51.90635"	"8.38033"	"Deutsche Kolonial-Zeitung"	"Deutsche Zentral-Druckrei A.G."	"52.5173"	"13.3889"
"Stadtmuseum"	"Gütersloh"	"51.90635"	"8.38033"	"Deutsche Kolonial-Zeitung"	"Verlag des Reichskolonialbundes"	"52.5173"	"13.3889"
"Stadtmuseum"	"Gütersloh"	"51.90635"	"8.38033"	"Deutsche Kolonial-Zeitung"	"Verlag des Reichskolonialbundes"	"52.5173"	"13.3889"
"Stadtmuseum"	"Gütersloh"	"51.90635"	"8.38033"	"Deutsche Kolonial-Zeitung"	"Verlag des Reichskolonialbundes"	"52.5173"	"13.3889"
"Stadtmuseum"	"Gütersloh"	"51.90635"	"8.38033"	"Biographie"	"C. Bertelsmann-Verlag"	"51.9166"	"8.3950"
"Stadtmuseum Hilchenbach"	"Hilchenbach"	"50.99681"	"8.11018"	"Stickbild"	NA	"50.99681"	"8.11018"
"Stadtmuseum Hilchenbach"	"Hilchenbach"	"50.99681"	"8.11018"	"Stickbild"	NA	"50.99681"	"8.11018"
"Stadtmuseum Hilchenbach"	"Hilchenbach"	"50.99681"	"8.11018"	"Sammelbüchse"	NA	"50.99681"	"8.11018"
"Heimatmuseum Hüllhorst"	"Hüllhorst"	"52.27287"	"8.67306"	"Dose Mit Deckel"	"Indien"	"28.5635"	"77.1528"
"Heimatmuseum Hüllhorst"	"Hüllhorst"	"52.27287"	"8.67306"	"ein Paar chinesische Eßstäbchen"	"China (vermutlich)"	"39.9064"	"116.3913"
"Heimatmuseum Hüllhorst"	"Hüllhorst"	"52.27287"	"8.67306"	"chinesischer Fächer"	"China (vermutlich)"	"39.9064"	"116.3913"
"Heimatmuseum Hüllhorst"	"Hüllhorst"	"52.27287"	"8.67306"	"2 Papierschildchen mit chinesischer Schrift"	"China"	"39.9064"	"116.3913"
"Stadtmuseum"	"Iserlohn"	"51.372644"	"7.697221"	"Blechdose"	"Hanebeck Iserlohn"	"51.3878"	"7.6646"
"Stadtmuseum"	"Iserlohn"	"51.372644"	"7.697221"	"Blechdose mit Nadelheften für die Verschickung nach Übersee"	"Iserlohn (Prym)"	"51.3878"	"7.6646"
"Stadtmuseum"	"Iserlohn"	"51.372644"	"7.697221"	"Blechdose mit Nadeln für die Verschickung nach Übersee"	"Iserlohn (Prym)"	"51.3878"	"7.6646"
"Stadtmuseum"	"Iserlohn"	"51.372644"	"7.697221"	"Musterbuch der Firma Witte & Co"	"Stephan Witte & Co. Iserlohn"	"51.3878"	"7.6646"
"Stadtmuseum"	"Iserlohn"	"51.372644"	"7.697221"	"2 Zierstäbe mit Drachen umwunden 3 Drachenkopf"	"China"	"39.9064"	"116.3913"
"Stadtmuseum"	"Iserlohn"	"51.372644"	"7.697221"	"3 Schablonen zum Beschriften"	"Hanebeck Iserlohn"	"51.3878"	"7.6646"
"Stadtmuseum"	"Iserlohn"	"51.372644"	"7.697221"	"Anhänger"	"China"	"39.9064"	"116.3913"
"Stadtmuseum"	"Iserlohn"	"51.372644"	"7.697221"	"Anschlagplatte"	"China"	"39.9064"	"116.3913"
"Stadtmuseum"	"Iserlohn"	"51.372644"	"7.697221"	"antikisierende Vase"	"China"	"39.9064"	"116.3913"
"Stadtmuseum"	"Iserlohn"	"51.372644"	"7.697221"	"Ausladende Schale mit kleinem Fuß"	"China"	"39.9064"	"116.3913"
"Stadtmuseum"	"Iserlohn"	"51.372644"	"7.697221"	"Balustervase"	"China"	"39.9064"	"116.3913"
"Stadtmuseum"	"Iserlohn"	"51.372644"	"7.697221"	"Becher mit Deckel"	"Ostindien"	"28.5635"	"77.1528"
"Stadtmuseum"	"Iserlohn"	"51.372644"	"7.697221"	"Blumenschale"	"China"	"39.9064"	"116.3913"
"Städtisches Museum Haus Lethmate"	"Iserlohn"	"51.372644"	"7.697221"	"Blumenvase"	"China"	"39.9064"	"116.3913"
"Stadtmuseum"	"Iserlohn"	"51.372644"	"7.697221"	"Chinesische Münze"	"China"	"39.9064"	"116.3913"
"Stadtmuseum"	"Iserlohn"	"51.372644"	"7.697221"	"Chinesische Münze"	"China"	"39.9064"	"116.3913"
"Stadtmuseum"	"Iserlohn"	"51.372644"	"7.697221"	"Deckel (gehört zu 89/832)"	"China"	"39.9064"	"116.3913"
"Stadtmuseum"	"Iserlohn"	"51.372644"	"7.697221"	"Dreifüßiger Untersatz für Schale"	"China"	"39.9064"	"116.3913"
"Stadtmuseum"	"Iserlohn"	"51.372644"	"7.697221"	"Dreifüßiges Räuchergefäß mit Deckel"	"China"	"39.9064"	"116.3913"
"Stadtmuseum"	"Iserlohn"	"51.372644"	"7.697221"	"Flasche in Vasenform"	"Indien"	"28.5635"	"77.1528"
"Stadtmuseum"	"Iserlohn"	"51.372644"	"7.697221"	"Glasbordüre"	NA	"28.5635"	"77.1528"
"Stadtmuseum"	"Iserlohn"	"51.372644"	"7.697221"	"Handspiegel mit Pflaumenblütendekor"	"Japan"	"35.6897"	"139.6922"
"Stadtmuseum"	"Iserlohn"	"51.372644"	"7.697221"	"Hängelampe (4 Teile)"	"China"	"39.9064"	"116.3913"
"Stadtmuseum"	"Iserlohn"	"51.372644"	"7.697221"	"Henkelkanne mit griffförmigem Ausguß"	"China"	"39.9064"	"116.3913"
"Stadtmuseum"	"Iserlohn"	"51.372644"	"7.697221"	"Holzfiguren"	NA	"28.5635"	"77.1528"
"Stadtmuseum"	"Iserlohn"	"51.372644"	"7.697221"	"Imitation eines antiken Opfergefäßes des Weingefäßes \"gu\""	"China"	"39.9064"	"116.3913"
"Stadtmuseum"	"Iserlohn"	"51.372644"	"7.697221"	"Imitation eines chinesischen gui-Gefäßes 2 Holzuntersatz"	"Japan"	"35.6897"	"139.6922"
"Stadtmuseum"	"Iserlohn"	"51.372644"	"7.697221"	"Imitation eines chinesischen Opfergefäßes"	"China"	"39.9064"	"116.3913"
"Stadtmuseum"	"Iserlohn"	"51.372644"	"7.697221"	"klammerförmiger Zaumzeugschmuck"	"China"	"39.9064"	"116.3913"
"Stadtmuseum"	"Iserlohn"	"51.372644"	"7.697221"	"kleine Schale"	"Indien"	"28.5635"	"77.1528"
"Stadtmuseum"	"Iserlohn"	"51.372644"	"7.697221"	"Kleiner Teekocher mit Deckel und Einsatz"	"China"	"39.9064"	"116.3913"
"Stadtmuseum"	"Iserlohn"	"51.372644"	"7.697221"	"Kohlebecken mit durchbrochenem Deckel"	"China"	"39.9064"	"116.3913"
"Stadtmuseum"	"Iserlohn"	"51.372644"	"7.697221"	"Kohlebecken mit offenem Tiermaul"	"China"	"39.9064"	"116.3913"
"Stadtmuseum"	"Iserlohn"	"51.372644"	"7.697221"	"Kranich und Schlange (Plastik)"	"China"	"39.9064"	"116.3913"
"Stadtmuseum"	"Iserlohn"	"51.372644"	"7.697221"	"Kranich und Schlange (Plastik)"	"China"	"39.9064"	"116.3913"
"Städtisches Museum Haus Lethmate"	"Iserlohn"	"51.372644"	"7.697221"	"Lackdose"	"China (vermutlich)"	"39.9064"	"116.3913"
"Städtisches Museum Haus Lethmate"	"Iserlohn"	"51.372644"	"7.697221"	"Lanze"	"Afrika"	"0.876"	"17.232"
"Städtisches Museum Haus Lethmate"	"Iserlohn"	"51.372644"	"7.697221"	"Lanze"	"Afrika"	"0.876"	"17.232"
"Städtisches Museum Haus Lethmate"	"Iserlohn"	"51.372644"	"7.697221"	"Lanze"	"Afrika"	"0.876"	"17.232"
"Stadtmuseum"	"Iserlohn"	"51.372644"	"7.697221"	"Leuchter"	"Indien"	"28.5635"	"77.1528"
"Stadtmuseum"	"Iserlohn"	"51.372644"	"7.697221"	"Münzschwert mit 126 chinesischen Käschmünzen"	"China"	"39.9064"	"116.3913"
"Stadtmuseum"	"Iserlohn"	"51.372644"	"7.697221"	"Nadelbrief"	"Fa. Gerhard Weyland"	"51.3878"	"7.6646"
"Stadtmuseum"	"Iserlohn"	"51.372644"	"7.697221"	"Nadelbrief - Etiketten"	"Carl Wolters & Co."	"51.3878"	"7.6646"
"Stadtmuseum"	"Iserlohn"	"51.372644"	"7.697221"	"Nadelbriefe"	"Iserlohn (Prym)"	"51.3878"	"7.6646"
"Stadtmuseum"	"Iserlohn"	"51.372644"	"7.697221"	"Nadelmappe"	"Iserlohn (Prym)"	"51.3878"	"7.6646"
"Stadtmuseum"	"Iserlohn"	"51.372644"	"7.697221"	"Nadelmappe"	NA	"51.3878"	"7.6646"
"Stadtmuseum"	"Iserlohn"	"51.372644"	"7.697221"	"Nadelmappe (Aufkleber für Nadelmappen)"	"Iserlohn (Prym)"	"51.3878"	"7.6646"
"Stadtmuseum"	"Iserlohn"	"51.372644"	"7.697221"	"Nadelpäckchen (Briefe)"	"Iserlohn (Friedr. Hanebeck )"	"51.3878"	"7.6646"
"Stadtmuseum"	"Iserlohn"	"51.372644"	"7.697221"	"Nadelpäckchen (Briefe)"	"Iserlohn (Friedr. Hanebeck )"	"51.3878"	"7.6646"
"Stadtmuseum"	"Iserlohn"	"51.372644"	"7.697221"	"Nadelpäckchen (Briefe)"	"Iserlohn (Prym)"	"51.3878"	"7.6646"
"Stadtmuseum"	"Iserlohn"	"51.372644"	"7.697221"	"Nadelpäckchen (Briefe)"	"Iserlohn (Prym)"	"51.3878"	"7.6646"
"Stadtmuseum"	"Iserlohn"	"51.372644"	"7.697221"	"Nadelpäckchen (Briefe)"	"Aachen (? C. Hargen & Co.)"	"51.3878"	"7.6646"
"Stadtmuseum"	"Iserlohn"	"51.372644"	"7.697221"	"Nadelpäckchen (Briefe)"	"Iserlohn (Prym)"	"51.3878"	"7.6646"
"Stadtmuseum"	"Iserlohn"	"51.372644"	"7.697221"	"Nadelpäckchen (Briefe)"	"Iserlohn (C. Schwanemeyer)"	"51.3878"	"7.6646"
"Stadtmuseum"	"Iserlohn"	"51.372644"	"7.697221"	"Nadelpäckchen (Briefe)"	"Iserlohn (C. Schwanemeyer)"	"51.3878"	"7.6646"
"Stadtmuseum"	"Iserlohn"	"51.372644"	"7.697221"	"Nadelpäckchen (Briefe)"	"Iserlohn (C. Schwanemeyer)"	"51.3878"	"7.6646"
"Stadtmuseum"	"Iserlohn"	"51.372644"	"7.697221"	"Nadelpäckchen (Briefe)"	"Iserlohn (C. Schwanemeyer)"	"51.3878"	"7.6646"
"Stadtmuseum"	"Iserlohn"	"51.372644"	"7.697221"	"Nadelpäckchen (Briefe)"	"Iserlohn (C. Schwanemeyer)"	"51.3878"	"7.6646"
"Stadtmuseum"	"Iserlohn"	"51.372644"	"7.697221"	"Negerplastik (Trommler aus Haiti)"	"Haiti"	"18.5219"	"-72.3510"
"Stadtmuseum"	"Iserlohn"	"51.372644"	"7.697221"	"Negerplastik (Trommler aus Haiti)"	"Haiti"	"18.5219"	"-72.3510"
"Stadtmuseum"	"Iserlohn"	"51.372644"	"7.697221"	"Öllampe"	"Indien"	"28.5635"	"77.1528"
"Stadtmuseum"	"Iserlohn"	"51.372644"	"7.697221"	"Öl-Laterne"	"China"	"39.9064"	"116.3913"
"Stadtmuseum"	"Iserlohn"	"51.372644"	"7.697221"	"Opiumpfeife"	"China"	"39.9064"	"116.3913"
"Stadtmuseum"	"Iserlohn"	"51.372644"	"7.697221"	"Paar Damenschuhe \"jin lian\""	"China"	"39.9064"	"116.3913"
"Stadtmuseum"	"Iserlohn"	"51.372644"	"7.697221"	"Packpapier für Nadelbriefe in Weißblechdosen"	"Iserlohn (C. Schwanemeyer)"	"51.37237"	"7.69740"
"Stadtmuseum"	"Iserlohn"	"51.372644"	"7.697221"	"Pinselständer (pitong)"	"China"	"39.9064"	"116.3913"
"Stadtmuseum"	"Iserlohn"	"51.372644"	"7.697221"	"Pinselständer (pitong)"	"China"	"39.9064"	"116.3913"
"Stadtmuseum"	"Iserlohn"	"51.372644"	"7.697221"	"Plastik: zwei verschlungene Drachen"	"China"	"39.9064"	"116.3913"
"Stadtmuseum"	"Iserlohn"	"51.372644"	"7.697221"	"Postkarte"	NA	"39.9064"	"116.3913"
"Stadtmuseum"	"Iserlohn"	"51.372644"	"7.697221"	"Quadratische Vase (fang-hu)"	"China"	"39.9064"	"116.3913"
"Stadtmuseum"	"Iserlohn"	"51.372644"	"7.697221"	"Quadratische Vase (fang-hu)"	"Japan"	"35.6897"	"139.6922"
"Stadtmuseum"	"Iserlohn"	"51.372644"	"7.697221"	"Räuchergefäß in Gestalt eines Löwen (l) (2) Deckel (3) Holzsockel"	"China"	"39.9064"	"116.3913"
"Stadtmuseum"	"Iserlohn"	"51.372644"	"7.697221"	"Räuchergefäß mit Deckel"	"China"	"39.9064"	"116.3913"
"Stadtmuseum"	"Iserlohn"	"51.372644"	"7.697221"	"Räuchergefäß mit Deckel (als Rotlackimitation)"	"China"	"39.9064"	"116.3913"
"Stadtmuseum"	"Iserlohn"	"51.372644"	"7.697221"	"runde Dose mit Deckel"	"Japan"	"35.6897"	"139.6922"
"Stadtmuseum"	"Iserlohn"	"51.372644"	"7.697221"	"Schmuckbeschlag"	"China"	"39.9064"	"116.3913"
"Stadtmuseum"	"Iserlohn"	"51.372644"	"7.697221"	"Schmuckbeschlag"	"China"	"39.9064"	"116.3913"
"Stadtmuseum"	"Iserlohn"	"51.372644"	"7.697221"	"Sockel"	"China or Japan"	"42.52"	"122.61"
"Stadtmuseum"	"Iserlohn"	"51.372644"	"7.697221"	"Stabkappen"	"China (Gtbirt - Hersteller)"	"39.9064"	"116.3913"
"Stadtmuseum"	"Iserlohn"	"51.372644"	"7.697221"	"Stehlampe (unvollständig)"	"Indien"	"28.5635"	"77.1528"
"Stadtmuseum"	"Iserlohn"	"51.372644"	"7.697221"	"Stickbild"	NA	"42.52"	"122.61"
"Stadtmuseum"	"Iserlohn"	"51.372644"	"7.697221"	"Teebehälter mit Deckel"	"China"	"39.9064"	"116.3913"
"Stadtmuseum"	"Iserlohn"	"51.372644"	"7.697221"	"T-förmiger Schmuck vom Zaumzeug"	"China"	"39.9064"	"116.3913"
"Stadtmuseum"	"Iserlohn"	"51.372644"	"7.697221"	"Tuschestein in Holzkästchen mit Deckel (3)"	"Japan"	"35.6897"	"139.6922"
"Stadtmuseum"	"Iserlohn"	"51.372644"	"7.697221"	"Vase"	"China (Peking)"	"39.9064"	"116.3913"
"Stadtmuseum"	"Iserlohn"	"51.372644"	"7.697221"	"Vase"	"China"	"39.9064"	"116.3913"
"Stadtmuseum"	"Iserlohn"	"51.372644"	"7.697221"	"Vase (fanghu)"	"China"	"39.9064"	"116.3913"
"Stadtmuseum"	"Iserlohn"	"51.372644"	"7.697221"	"Vierarmiger Hängeleuchter; 1: Zylinder; 2-5: 4 Arme; 6-9: 4 Kerzenwachsauffangteller"	"China"	"39.9064"	"116.3913"
"Stadtmuseum"	"Iserlohn"	"51.372644"	"7.697221"	"Vierfüßige Schale mit Drachendekor"	"China"	"39.9064"	"116.3913"
"Stadtmuseum"	"Iserlohn"	"51.372644"	"7.697221"	"Wasserbecken (pou)"	"China"	"39.9064"	"116.3913"
"Stadtmuseum"	"Iserlohn"	"51.372644"	"7.697221"	"Webbild"	NA	"39.9064"	"116.3913"
"Stadtmuseum"	"Iserlohn"	"51.372644"	"7.697221"	"Weinkanne mit Deckel"	"China"	"39.9064"	"116.3913"
"Stadtmuseum"	"Iserlohn"	"51.372644"	"7.697221"	"X-förmiger Schmuck vom Zaumzeug"	"China"	"39.9064"	"116.3913"
"Stadtmuseum"	"Iserlohn"	"51.372644"	"7.697221"	"Zaumzeugschmuck"	"China"	"39.9064"	"116.3913"
"Stadtmuseum"	"Iserlohn"	"51.372644"	"7.697221"	"Zaumzeugschmuck"	"China"	"39.9064"	"116.3913"
"Stadtmuseum"	"Iserlohn"	"51.372644"	"7.697221"	"Zylindrische Schale"	"Japan"	"35.6897"	"139.6922"
"Stadtmuseum"	"Iserlohn"	"51.372644"	"7.697221"	"Zylindrisches Gefäß"	"China"	"39.9064"	"116.3913"
"Hexenbürgermeisterhaus"	"Lemgo"	"52.025"	"8.899722"	"Kupferstich"	"gezeichnet von Johannes C. Scheuchzer"	"52.0402"	"8.9015"
"Hexenbürgermeisterhaus"	"Lemgo"	"52.025"	"8.899722"	"Graphik (Skizze eines Elefanten)"	"Bielefeld (Eduard Herterich)"	"52.0210"	"8.5262"
"Hexenbürgermeisterhaus"	"Lemgo"	"52.025"	"8.899722"	"Rabattmarkenkarten (42 Ex.)"	NA	"52.0402"	"8.9015"
"Hexenbürgermeisterhaus"	"Lemgo"	"52.025"	"8.899722"	"5 Brenneiseneinsätze (groß)"	NA	"52.0402"	"8.9015"
"Geschichtsmuseum Stadt Lüdenscheid"	"Lüdenscheid"	"51.213751"	"7.631598"	"Notgeld"	NA	NA	NA
"Städtisches Museum"	"Menden"	"51.43832"	"7.795261"	"Kupferstich"	"Brasilie (Porto Calvo)"	"-9.0341"	"-35.4335"
"Städt. Museum"	"Menden"	"51.43832"	"7.795261"	"Handstock"	"China"	"39.9064"	"116.3913"
"Städt. Museum"	"Menden"	"51.43832"	"7.795261"	"Handstock"	"China"	"39.9064"	"116.3913"
"Städt. Museum"	"Menden"	"51.43832"	"7.795261"	"Service"	"China"	"39.9064"	"116.3913"
"Städtisches Museum"	"Menden"	"51.43832"	"7.795261"	"Mitgliedskarte im Reichskolonialbund"	NA	"51.4338"	"7.7941"
"Städtisches Museum"	"Menden"	"51.43832"	"7.795261"	"Armband"	"Geschenke von Söhnen d. Heimat"	"-6.8766"	"39.4695"
"Städtisches Museum"	"Menden"	"51.43832"	"7.795261"	"Blasinstrument"	"Geschenk von Söhnen d. Heimat"	"7.395"	"12.283"
"Städtisches Museum"	"Menden"	"51.43832"	"7.795261"	"Horn"	"Geschenk von Söhnen d.Heimat"	"0.876"	"17.232"
"Städtisches Museum"	"Menden"	"51.43832"	"7.795261"	"Stickerei"	NA	"39.9064"	"116.3913"
"Städtisches Museum"	"Menden"	"51.43832"	"7.795261"	"gefächertes Holz- kästchen"	NA	"39.9064"	"116.3913"
"Städtisches Museum"	"Menden"	"51.43832"	"7.795261"	"Nähkästchen"	NA	"42.52"	"122.61"
"Städtisches Museum"	"Menden"	"51.43832"	"7.795261"	"Glasbilder in Holzrahmen"	NA	"42.52"	"122.61"
"Städtisches Museum"	"Menden"	"51.43832"	"7.795261"	"Holzstab"	NA	"0.876"	"17.232"
"Städtisches Museum"	"Menden"	"51.43832"	"7.795261"	"Holzstab"	NA	"0.876"	"17.232"
"Städtisches Museum"	"Menden"	"51.43832"	"7.795261"	"gerahmte Erinnerung"	NA	"52.5173"	"13.3889"
"Städtisches Museum"	"Menden"	"51.43832"	"7.795261"	"Kukri-Messer mit Futteral"	NA	"28.5635"	"77.1528"
"Städtisches Museum"	"Menden"	"51.43832"	"7.795261"	"Grußkarte"	"Pater Ansgar Braun"	"31.7884"	"35.2068"
"Städtisches Museum"	"Menden"	"51.43832"	"7.795261"	"59 chin. Münzen"	"über Bischof Henninghaus"	"39.9064"	"116.3913"
"Städtisches Museum"	"Menden"	"51.43832"	"7.795261"	"chin. Münze"	"über Bischof Henninghaus"	"39.9064"	"116.3913"
"Städtisches Museum"	"Menden"	"51.43832"	"7.795261"	"chines. Münze"	"über Bischof Henninghaus"	"39.9064"	"116.3913"
"Städtisches Museum"	"Menden"	"51.43832"	"7.795261"	"chin. Münze"	"über Bischof Henninghaus"	"39.9064"	"116.3913"
"Städtisches Museum"	"Menden"	"51.43832"	"7.795261"	"2 chin. Münzen"	"über Bischof Henninghaus"	"39.9064"	"116.3913"
"Städtisches Museum"	"Menden"	"51.43832"	"7.795261"	"Affenfigürchen"	"über Bischof Henninghaus"	"39.9064"	"116.3913"
"Städtisches Museum"	"Menden"	"51.43832"	"7.795261"	"Chin. Messermünze"	"über Bischof Henninghaus"	"39.9064"	"116.3913"
"Städtisches Museum"	"Menden"	"51.43832"	"7.795261"	"chin.Messermünze"	"über Bischof Henninghaus"	"39.9064"	"116.3913"
"Städtisches Museum"	"Menden"	"51.43832"	"7.795261"	"chines. Briefumschlag"	NA	"39.9064"	"116.3913"
"Städtisches Museum"	"Menden"	"51.43832"	"7.795261"	"chin. Klangmünze"	"über Bischof Henninghaus"	"39.9064"	"116.3913"
"Städtisches Museum"	"Menden"	"51.43832"	"7.795261"	"32 chin. Heftchen"	"über Bischof Henninghaus"	"39.9064"	"116.3913"
"Städtisches Museum"	"Menden"	"51.43832"	"7.795261"	"Biographie der kaiserl. Familie"	"über Bischof Henninghaus"	"39.9064"	"116.3913"
"Städtisches Museum"	"Menden"	"51.43832"	"7.795261"	"Zeremoniell f. den chin. Kaiserhof"	NA	"39.9064"	"116.3913"
"Städtisches Museum"	"Menden"	"51.43832"	"7.795261"	"chin. Federkiel"	NA	"39.9064"	"116.3913"
"Städtisches Museum"	"Menden"	"51.43832"	"7.795261"	"Luntenschloßgewehr"	NA	"39.9064"	"116.3913"
"Städtisches Museum"	"Menden"	"51.43832"	"7.795261"	"1 Canadischer Dollar 5 südafrikan. S"	"Canada/ Süd-Afrika"	"11.625354"	"-31.990883"
"Städtisches Museum"	"Menden"	"51.43832"	"7.795261"	"1 Dollar USA 1 Rand Südafrika"	"USA / Südafrika"	"0.563872"	"-29.810865"
"Städtisches Museum"	"Menden"	"51.43832"	"7.795261"	"2 deutsche Kolonialmünzen nach J 701, 702"	"für Deutsch-Neuguinea"	"-9.4744"	"147.1600"
"Städtisches Museum"	"Menden"	"51.43832"	"7.795261"	"2 Reichsmünzen f. Ostafrika? nach J710?716j"	"für Deutsch-Ostafrika"	"-6.8000"	"39.2833"
"Städtisches Museum"	"Menden"	"51.43832"	"7.795261"	"Landkarte Afrika"	"Joh. Matthias Hasio / Homänn. Erben"	"0.876"	"17.232"
"Museum des Freien Grundes"	"Neunkirchen"	"51.43832"	"7.795261"	"Chinesischer Säbel"	"China"	"39.9064"	"116.3913"
"Museum des Freien Grundes"	"Neunkirchen"	"51.43832"	"7.795261"	"Haumesser"	NA	"39.9064"	"116.3913"
"Museum des Freien Grundes"	"Neunkirchen"	"51.43832"	"7.795261"	"Säbel"	NA	"39.9064"	"116.3913"
"Museum des freien Grundes"	"Neunkirchen"	"51.43832"	"7.795261"	"Stein"	"Afrika"	"0.876"	"17.232"
"Museum des freien Grundes"	"Neunkirchen"	"51.43832"	"7.795261"	"Geographieschulbuch"	NA	"49.0159"	"8.4095"
"Museum des freien Grundes"	"Neunkirchen"	"51.43832"	"7.795261"	"Roman"	NA	"52.5173"	"13.3889"
"Museum des freien Grundes"	"Neunkirchen"	"51.43832"	"7.795261"	"Roman"	NA	"51.3409"	"12.3747"
"Museum des freien Grundes"	"Neunkirchen"	"51.43832"	"7.795261"	"Reisebericht"	NA	"52.5173"	"13.3889"
"Museum des freien Grundes"	"Neunkirchen"	"51.43832"	"7.795261"	"Roman"	NA	"51.3409"	"12.3747"
"Museum des freien Grundes"	"Neunkirchen"	"51.43832"	"7.795261"	"Beschreibung"	NA	"52.5173"	"13.3889"
"Museum des freien Grundes"	"Neunkirchen"	"51.43832"	"7.795261"	"Sachbuch"	NA	"51.3409"	"12.3747"
"Museum für Stadtgeschichte"	"Paderborn"	"51.71845"	"8.75264"	"Porzellantopf ( vermutlich chinesisches Räuchergefäß)"	NA	"39.9064"	"116.3913"
"Museum für Stadtgeschichte"	"Paderborn"	"51.71845"	"8.75264"	"Speerspitze (vermutlich Kopie)"	"Afrika"	"0.876"	"17.232"
"Museum für Stadtgeschichte"	"Paderborn"	"51.71845"	"8.75264"	"Speerspitze (vermutlich Kopie)"	"Afrika"	"0.876"	"17.232"
"Kunsthalle Recklinghausen"	"Recklinghausen"	"51.61711"	"7.20276"	"Dose"	NA	"39.9064"	"116.3913"
"Städt. Museum Haus Martfeld"	"Schwelm"	"51.29155"	"7.30840"	"Vase"	NA	"39.9064"	"116.3913"
"Städt. Museum Haus Martfeld"	"Schwelm"	"51.29155"	"7.30840"	"Vase"	NA	"39.9064"	"116.3913"
"Städt. Museum Haus Martfeld"	"Schwelm"	"51.29155"	"7.30840"	"Vase"	NA	"39.9064"	"116.3913"
"Städt. Museum Haus Martfeld"	"Schwelm"	"51.29155"	"7.30840"	"Vase"	NA	"39.9064"	"116.3913"
"Städt. Museum Haus Martfeld"	"Schwelm"	"51.29155"	"7.30840"	"Teekanne mit Deckel"	NA	"39.9064"	"116.3913"
"Städt. Museum Haus Martfeld"	"Schwelm"	"51.29155"	"7.30840"	"Moccaschälchen"	NA	"39.9064"	"116.3913"
"Städt. Museum Haus Martfeld"	"Schwelm"	"51.29155"	"7.30840"	"Bild"	NA	"39.9064"	"116.3913"
"Städt. Museum Haus Martfeld"	"Schwelm"	"51.29155"	"7.30840"	"Bild"	NA	"39.9064"	"116.3913"
"Burghofmuseum"	"Soest"	"51.56844"	"8.11032"	"Afrikanische Lanzenspitze, 3 teilig"	NA	"0.876"	"17.232"
"Burghofmuseum"	"Soest"	"51.56844"	"8.11032"	"Topf"	"China"	"39.9064"	"116.3913"
"Burghofmuseum"	"Soest"	"51.56844"	"8.11032"	"Topf"	NA	"39.9064"	"116.3913"
"Burghofmuseum"	"Soest"	"51.56844"	"8.11032"	"Topf"	"China"	"39.9064"	"116.3913"
"Burghofmuseum"	"Soest"	"51.56844"	"8.11032"	"Topf"	"China"	"39.9064"	"116.3913"
"Burghofmuseum"	"Soest"	"51.56844"	"8.11032"	"Topf"	"China"	"39.9064"	"116.3913"
"Burghofmuseum"	"Soest"	"51.56844"	"8.11032"	"Topf"	"China"	"39.9064"	"116.3913"
"Burghofmuseum"	"Soest"	"51.56844"	"8.11032"	"Topf"	"China"	"39.9064"	"116.3913"
"Burghofmuseum"	"Soest"	"51.56844"	"8.11032"	"Topf"	"China"	"39.9064"	"116.3913"
"Burghofmuseum"	"Soest"	"51.56844"	"8.11032"	"Afrikanische Schnitzerei"	"Afrika"	"0.876"	"17.232"
"Burghofmuseum"	"Soest"	"51.56844"	"8.11032"	"2 Schälchen"	"China"	"39.9064"	"116.3913"
"Burghofmuseum"	"Soest"	"51.56844"	"8.11032"	"Teller"	"China"	"39.9064"	"116.3913"
"Burghofmuseum"	"Soest"	"51.56844"	"8.11032"	"Teller"	NA	"39.9064"	"116.3913"
"Burghofmuseum"	"Soest"	"51.56844"	"8.11032"	"Teller"	NA	"39.9064"	"116.3913"
"Burghofmuseum"	"Soest"	"51.56844"	"8.11032"	"Teller"	NA	"39.9064"	"116.3913"
"Burghofmuseum"	"Soest"	"51.56844"	"8.11032"	"Teller"	NA	"39.9064"	"116.3913"
"Burghofmuseum"	"Soest"	"51.56844"	"8.11032"	"Teller"	NA	"39.9064"	"116.3913"
"Burghofmuseum"	"Soest"	"51.56844"	"8.11032"	"Teller"	"China"	"39.9064"	"116.3913"
"Burghofmuseum"	"Soest"	"51.56844"	"8.11032"	"Teller"	NA	"39.9064"	"116.3913"
"Burghofmuseum"	"Soest"	"51.56844"	"8.11032"	"Teller"	NA	"39.9064"	"116.3913"
"Burghofmuseum"	"Soest"	"51.56844"	"8.11032"	"Teekanne mit Deckel (ohne Bügel)"	NA	"39.9064"	"116.3913"
"Burghofmuseum"	"Soest"	"51.56844"	"8.11032"	"Kanne (ohne Deckel)"	"Chines"	"39.9064"	"116.3913"
"Burghofmuseum"	"Soest"	"51.56844"	"8.11032"	"Teekanne mit Deckel"	"Chines"	"39.9064"	"116.3913"
"Burghofmuseum"	"Soest"	"51.56844"	"8.11032"	"Teekanne (ohne Deckel, Bügel vermtl. nicht zugehörig)"	"Chines"	"39.9064"	"116.3913"
"Burghofmuseum"	"Soest"	"51.56844"	"8.11032"	"Teeschälchen"	"China"	"39.9064"	"116.3913"
"Burghofmuseum"	"Soest"	"51.56844"	"8.11032"	"Schüssel"	NA	"39.9064"	"116.3913"
"Burghofmuseum"	"Soest"	"51.56844"	"8.11032"	"Kleine Schüssel"	NA	"39.9064"	"116.3913"
"Burghofmuseum"	"Soest"	"51.56844"	"8.11032"	"Schüssel"	NA	"39.9064"	"116.3913"
"Burghofmuseum"	"Soest"	"51.56844"	"8.11032"	"Teller"	NA	"39.9064"	"116.3913"
"Burghofmuseum"	"Soest"	"51.56844"	"8.11032"	"Schälchen"	NA	"39.9064"	"116.3913"
"Burghofmuseum"	"Soest"	"51.56844"	"8.11032"	"Schale"	NA	"39.9064"	"116.3913"
"Burghofmuseum"	"Soest"	"51.56844"	"8.11032"	"Teeschale"	NA	"39.9064"	"116.3913"
"Burghofmuseum"	"Soest"	"51.56844"	"8.11032"	"Schälchen"	NA	"39.9064"	"116.3913"
"Burghofmuseum"	"Soest"	"51.56844"	"8.11032"	"Schälchen"	"China"	"39.9064"	"116.3913"
"Burghofmuseum"	"Soest"	"51.56844"	"8.11032"	"Schälchen"	"China"	"39.9064"	"116.3913"
"Burghofmuseum"	"Soest"	"51.56844"	"8.11032"	"Schale"	NA	"39.9064"	"116.3913"
"Burghofmuseum"	"Soest"	"51.56844"	"8.11032"	"Vase"	"Chin"	"39.9064"	"116.3913"
"Burghofmuseum"	"Soest"	"51.56844"	"8.11032"	"Teller"	NA	"39.9064"	"116.3913"
"Burghofmuseum"	"Soest"	"51.56844"	"8.11032"	"Vase"	"Chin"	"39.9064"	"116.3913"
"Heimathaus Münsterland"	"Telgte"	"51.98495"	"7.78635"	"a: Spanschachtel mit Natur-Indigo-Stücken b: Glasflasche mit Naturindigo-Stücken"	"s. n."	"28.5635"	"77.1528"
"Heimathaus Münsterland"	"Telgte"	"51.98495"	"7.78635"	"Deckchen"	"Taiwan"	"32.0535"	"118.7936"
"Heimathaus Münsterland"	"Telgte"	"51.98495"	"7.78635"	"Schultertuch"	"China"	"39.9064"	"116.3913"
"Heimathaus Münsterland"	"Telgte"	"51.98495"	"7.78635"	"Fotographien \"Indigo-Expedition\" 5 Fotos"	"Indien"	"28.5635"	"77.1528"
"Heimathaus Münsterland"	"Telgte"	"51.98495"	"7.78635"	"Holzschnitt \"indischer Gebetstext\""	"Indien"	"28.5635"	"77.1528"
"Heimatmuseum Münsterland"	"Telgte"	"51.98495"	"7.78635"	"Spielzeug: Chinesiches Geduldspiel"	"Deutschland"	"52.5173"	"13.3889"
"Heimatmuseum Münsterland"	"Telgte"	"51.98495"	"7.78635"	"Aquarell \"Blumenranke\""	"Indien"	"28.5635"	"77.1528"
"Heimatmuseum Münsterland"	"Telgte"	"51.98495"	"7.78635"	"Muschelgeld, Westafrika a-b Muschelketten c) Stirnband d) Band"	"Westafrika (Dt Kolonien)"	"-22.5586"	"17.0587"
"Museum Abtei Liesborn"	"Wadersloh"	"51.71257"	"8.25937"	"Stoffmodel"	"Indien"	"28.5635"	"77.1528"
"Museum Abtei Liesborn"	"Wadersloh"	"51.71257"	"8.25937"	"Stoffmodel"	"Indien"	"28.5635"	"77.1528"
"Museum Abtei Liesborn"	"Wadersloh"	"51.71257"	"8.25937"	"Stoffdruckmodel"	"Indien"	"28.5635"	"77.1528"
"Museum\"Im Stern\""	"Warburg"	"51.48780"	"9.14766"	"Zierteller"	"China"	"39.9064"	"116.3913"
"Museum\"Im Stern\""	"Warburg"	"51.48780"	"9.14766"	"Blumenvase"	"China"	"39.9064"	"116.3913"
"Museum\"Im Stern\""	"Warburg"	"51.48780"	"9.14766"	"Blumenvase"	"China"	"39.9064"	"116.3913"
"Städt. Museum Warstein"	"Warstein"	"51.45133"	"8.35494"	"4 Fotos mit chinesischen Motiven"	"China"	"39.9064"	"116.3913"
"Städt. Museum Warstein"	"Warstein"	"51.45133"	"8.35494"	"Tablett"	"Chna"	"39.9064"	"116.3913"
"Städt. Museum Warstein"	"Warstein"	"51.45133"	"8.35494"	"Tischglocke"	"Indien"	"28.5635"	"77.1528"
"Städt. Museum Warstein"	"Warstein"	"51.45133"	"8.35494"	"Teller"	"China"	"39.9064"	"116.3913"
"Städt. Museum Warstein"	"Warstein"	"51.45133"	"8.35494"	"Tisch"	"China"	"39.9064"	"116.3913"
"Städt. Museum Warstein"	"Warstein"	"51.45133"	"8.35494"	"Rauchverzehrer"	"China"	"39.9064"	"116.3913"
"Heimatmuseum Am Rykenberg"	"Werl"	"51.55129"	"7.91379"	"Teekiste mit 2 Innenbehältern"	"China"	"39.9064"	"116.3913"
"Heimatmuseum Am Rykenberg"	"Werl"	"51.55129"	"7.91379"	"Eßstäbchen, 1 Paar"	"China"	"39.9064"	"116.3913"
"Heimatmuseum Am Rykenberg"	"Werl"	"51.55129"	"7.91379"	"1 Paar Eßstäbchen"	"China"	"39.9064"	"116.3913"
"Heimatmuseum"	"Werne"	"51.66351"	"7.63423"	"Plastik"	"Afrika"	"0.876"	"17.232"
"Heimatkabinett"	"Westerholt"	"51.60008"	"7.09179"	"Sonnenuhr"	"China"	"39.9064"	"116.3913"
"Heimatkabinett"	"Westerholt"	"51.60008"	"7.09179"	"Reservistenstock"	"China"	"39.9064"	"116.3913"
"Städtisches Museum"	"Menden"	"51.43832"	"7.795261"	"Korb"	"Ostafrika"	"-6.8000"	"39.2833"
"Städtisches Museum"	"Menden"	"51.43832"	"7.795261"	"Kalebasse"	"Japan"	"35.6897"	"139.6922"
"Städtisches Museum"	"Menden"	"51.43832"	"7.795261"	"Kalebasse"	"Japan"	"35.6897"	"139.6922"
"Städtisches Museum"	"Menden"	"51.43832"	"7.795261"	"Kalebasse"	"Japan"	"35.6897"	"139.6922"
"Städtisches Museum"	"Menden"	"51.43832"	"7.795261"	"Kalebasse"	"Japan"	"35.6897"	"139.6922"
"Städtisches Museum"	"Menden"	"51.43832"	"7.795261"	"Flasche"	"Ostafrika"	"-6.8000"	"39.2833"
"Städtisches Museum"	"Menden"	"51.43832"	"7.795261"	"Schnitzerei"	"China"	"39.9064"	"116.3913"
"Städtisches Museum"	"Menden"	"51.43832"	"7.795261"	"Schnitzerei"	"China"	"39.9064"	"116.3913"
"Städtisches Museum"	"Menden"	"51.43832"	"7.795261"	"Schnitzerei"	"China"	"39.9064"	"116.3913"
"Städtisches Museum"	"Menden"	"51.43832"	"7.795261"	"Schnitzerei"	"China"	"39.9064"	"116.3913"
"Städtisches Museum"	"Menden"	"51.43832"	"7.795261"	"Löffel"	NA	NA	NA
"Städtisches Museum"	"Menden"	"51.43832"	"7.795261"	"Kelle"	"Ostafrika"	"-6.8000"	"39.2833"
"Städtisches Museum"	"Menden"	"51.43832"	"7.795261"	"Kamm"	"Indien"	"28.5635"	"77.1528"
"Städtisches Museum"	"Menden"	"51.43832"	"7.795261"	"Sandalen"	"Japan"	"35.6897"	"139.6922"
"Städtisches Museum"	"Menden"	"51.43832"	"7.795261"	"Sandalen"	"Japan"	"35.6897"	"139.6922"
"Städtisches Museum"	"Menden"	"51.43832"	"7.795261"	"Tierfigur"	"Japan"	"35.6897"	"139.6922"
"Städtisches Museum"	"Menden"	"51.43832"	"7.795261"	"Tierfigur"	"Japan"	"35.6897"	"139.6922"
"Städtisches Museum"	"Menden"	"51.43832"	"7.795261"	"Halskette"	"Ostasien"	"42.52"	"122.61"
"Städtisches Museum"	"Menden"	"51.43832"	"7.795261"	"Spielzeug"	"Ostasien"	"42.52"	"122.61"
"Städtisches Museum"	"Menden"	"51.43832"	"7.795261"	"Spielzeug"	"Ostasien"	"42.52"	"122.61"
"Städtisches Museum"	"Menden"	"51.43832"	"7.795261"	"Spielzeug"	"Ostasien"	"42.52"	"122.61"
"Städtisches Museum"	"Menden"	"51.43832"	"7.795261"	"Spielzeug"	"Ostasien"	"42.52"	"122.61"
"Städtisches Museum"	"Menden"	"51.43832"	"7.795261"	"Sanza"	"Kamerun"	"3.8414"	"11.4921"
"Städtisches Museum"	"Menden"	"51.43832"	"7.795261"	"Idiophon"	"Kamerun"	"3.8414"	"11.4921"
"Städtisches Museum"	"Menden"	"51.43832"	"7.795261"	NA	NA	NA	NA
"Städtisches Museum"	"Menden"	"51.43832"	"7.795261"	"Schuhe"	"Japan"	"35.6897"	"139.6922"
"Städtisches Museum"	"Menden"	"51.43832"	"7.795261"	"Zopf"	"China"	"35.666"	"140.076"
"Städtisches Museum"	"Menden"	"51.43832"	"7.795261"	"Kalebasse"	"Japan"	"35.6897"	"139.6922"
"Städtisches Museum"	"Menden"	"51.43832"	"7.795261"	"Armband"	"Neuguinea"	"-9.4744"	"147.1600"
"Städtisches Museum"	"Menden"	"51.43832"	"7.795261"	"Teller"	"Japan"	"35.6897"	"139.6922"
"Städtisches Museum"	"Menden"	"51.43832"	"7.795261"	"Opiumpfeife"	"China"	"39.9064"	"116.3913"
"Städtisches Museum"	"Menden"	"51.43832"	"7.795261"	"Tonfigur"	"Mexiko"	"19.4375"	"-99.1353"
"Städtisches Museum"	"Menden"	"51.43832"	"7.795261"	"Opiumbeutel"	"China"	"39.9064"	"116.3913"
"Städtisches Museum"	"Menden"	"51.43832"	"7.795261"	"Tierplastik"	"China"	"39.9064"	"116.3913"
"Städtisches Museum"	"Menden"	"51.43832"	"7.795261"	"Schwert"	"China"	"39.9064"	"116.3913"
"Städtisches Museum"	"Menden"	"51.43832"	"7.795261"	"Tasche"	"Südamerika"	"-15.5582"	"-56.0483"
"Städtisches Museum"	"Menden"	"51.43832"	"7.795261"	"Geleitstab"	"Kamerun"	"3.8414"	"11.4921"
"Städtisches Museum"	"Menden"	"51.43832"	"7.795261"	"Keule"	"Ostafrika"	"-6.8000"	"39.2833"
"Städtisches Museum"	"Menden"	"51.43832"	"7.795261"	"Pfeil"	"Ostafrika (?)"	"-6.8000"	"39.2833"
"Städtisches Museum"	"Menden"	"51.43832"	"7.795261"	"Bogen (Waffen)"	"Ostafrika"	"-6.8000"	"39.2833"
"Städtisches Museum"	"Menden"	"51.43832"	"7.795261"	"Bogen (Waffen)"	"Ostafrika"	"-6.8000"	"39.2833"
"Städtisches Museum"	"Menden"	"51.43832"	"7.795261"	"Pfeile (Waffen)"	"Kamerun"	"3.8414"	"11.4921"
"Städtisches Museum"	"Menden"	"51.43832"	"7.795261"	"Paddel"	"Ostafrika"	"-6.8000"	"39.2833"
"Städtisches Museum"	"Menden"	"51.43832"	"7.795261"	"Speer (Waffen)"	"Ostafrika"	"-6.8000"	"39.2833"
"Städtisches Museum"	"Menden"	"51.43832"	"7.795261"	"Speer (Waffen)"	"Ostafrika"	"-6.8000"	"39.2833"
"Städtisches Museum"	"Menden"	"51.43832"	"7.795261"	"Speer (Waffen)"	"Ostafrika"	"-6.8000"	"39.2833"
"Städtisches Museum"	"Menden"	"51.43832"	"7.795261"	"Speer (Waffen)"	"Ostafrika"	"-6.8000"	"39.2833"
"Städtisches Museum"	"Menden"	"51.43832"	"7.795261"	"Speer (Waffen)"	"Ostafrika"	"-6.8000"	"39.2833"
"Städtisches Museum"	"Menden"	"51.43832"	"7.795261"	"Speer (Waffen)"	"Ostafrika"	"-6.8000"	"39.2833"
"Städtisches Museum"	"Menden"	"51.43832"	"7.795261"	"Speer (Waffen)"	"Ostafrika"	"-6.8000"	"39.2833"
"Städtisches Museum"	"Menden"	"51.43832"	"7.795261"	"Speerschaft (Waffen)"	"Ostafrika"	"-6.8000"	"39.2833"
"Städtisches Museum"	"Menden"	"51.43832"	"7.795261"	"Speer (Waffen)"	"Ostafrika"	"-6.8000"	"39.2833"
"Städtisches Museum"	"Menden"	"51.43832"	"7.795261"	"Ruder"	"Afrika"	"0.876"	"17.232"
"Städtisches Museum"	"Menden"	"51.43832"	"7.795261"	"Ruder"	"Afrika"	"0.876"	"17.232"
"Städtisches Museum"	"Menden"	"51.43832"	"7.795261"	"Speer (Waffen)"	"Ostafrika"	"-6.8000"	"39.2833"
"Städtisches Museum"	"Menden"	"51.43832"	"7.795261"	"Ruder"	"Afrika"	"0.876"	"17.232"
"Städtisches Museum"	"Menden"	"51.43832"	"7.795261"	"Rassel (Musikinstrument)"	"Afrika"	"0.876"	"17.232"
"Städtisches Museum"	"Menden"	"51.43832"	"7.795261"	"Salatbesteck (Hausrat)"	"Ostasien"	"42.52"	"122.61"
"Städtisches Museum"	"Menden"	"51.43832"	"7.795261"	"Federhalter"	"Asien"	"43.8551"	"87.6316"
"Städtisches Museum"	"Menden"	"51.43832"	"7.795261"	"Betelnußmesser"	"Südasien"	"26.9156"	"75.8190"
"Städtisches Museum"	"Menden"	"51.43832"	"7.795261"	"Speer (Waffen)"	"Ostafrika"	"-6.8000"	"39.2833"
"Städtisches Museum"	"Menden"	"51.43832"	"7.795261"	"Lanze"	"Japan"	"42.52"	"122.61"
"Städtisches Museum"	"Menden"	"51.43832"	"7.795261"	"Lanze"	"Ostafrika"	"-6.8000"	"39.2833"
"Städtisches Museum"	"Menden"	"51.43832"	"7.795261"	"Sanzazungen (Musikinstrument)"	"Ostafrika"	"-6.8000"	"39.2833"
"Städtisches Museum"	"Menden"	"51.43832"	"7.795261"	"Schirm"	"Japan"	"42.52"	"122.61"
"Städtisches Museum"	"Menden"	"51.43832"	"7.795261"	"Calotte (Priesterkleidung)"	NA	NA	NA
"Städtisches Museum"	"Menden"	"51.43832"	"7.795261"	"Calotte (Priesterkleidung)"	NA	NA	NA
"Städtisches Museum"	"Menden"	"51.43832"	"7.795261"	"Calotte (Priesterkleidung)"	NA	NA	NA
"Städtisches Museum"	"Menden"	"51.43832"	"7.795261"	"Birett (Priesterkleidung)"	NA	NA	NA
"Städtisches Museum"	"Menden"	"51.43832"	"7.795261"	"Mozetta (Priesterkleidung)"	NA	NA	NA
"Städtisches Museum"	"Menden"	"51.43832"	"7.795261"	"Zingulum (Priesterkleidung)"	NA	NA	NA
"Städtisches Museum"	"Menden"	"51.43832"	"7.795261"	"Collar (Priesterkleidung)"	NA	NA	NA
"Städtisches Museum"	"Menden"	"51.43832"	"7.795261"	"Kasel"	NA	NA	NA
"Städtisches Museum"	"Menden"	"51.43832"	"7.795261"	"Kasel"	NA	NA	NA
"Städtisches Museum"	"Menden"	"51.43832"	"7.795261"	"Kasel"	NA	NA	NA
"Städtisches Museum"	"Menden"	"51.43832"	"7.795261"	"Kelchvelum"	NA	NA	NA
"Städtisches Museum"	"Menden"	"51.43832"	"7.795261"	"Stola"	NA	NA	NA
"Städtisches Museum"	"Menden"	"51.43832"	"7.795261"	"Manipel"	NA	NA	NA
"Städtisches Museum"	"Menden"	"51.43832"	"7.795261"	"Manipel"	NA	NA	NA
"Städtisches Museum"	"Menden"	"51.43832"	"7.795261"	"Kelchvelum"	NA	NA	NA
"Städtisches Museum"	"Menden"	"51.43832"	"7.795261"	"Stola"	NA	NA	NA
"Städtisches Museum"	"Menden"	"51.43832"	"7.795261"	"Kelchvelum"	NA	NA	NA
"Städtisches Museum"	"Menden"	"51.43832"	"7.795261"	"Stola"	NA	NA	NA
"Städtisches Museum"	"Menden"	"51.43832"	"7.795261"	"Hut"	"Garmisch (Oberbayern)  S. B. Weber Großherzogl. Luxemb. Hoflieferant"	"47.4922"	"11.0821"
"Städtisches Museum"	"Menden"	"51.43832"	"7.795261"	"Schuhe (Kleidung)"	"China"	"39.9064"	"116.3913"
"Städtisches Museum"	"Menden"	"51.43832"	"7.795261"	"Schuhe (Kleidung)"	"China"	"39.9064"	"116.3913"
"Städtisches Museum"	"Menden"	"51.43832"	"7.795261"	"Schuhe (Kleidung)"	"China"	"39.9064"	"116.3913"
"Städtisches Museum"	"Menden"	"51.43832"	"7.795261"	"Schuhe (Kleidung)"	"China"	"39.9064"	"116.3913"
"Städtisches Museum"	"Menden"	"51.43832"	"7.795261"	"Speerspitze (Waffen)"	"Ostafrika"	"-6.8000"	"39.2833"
"Städtisches Museum"	"Menden"	"51.43832"	"7.795261"	"Schuhe (Kleidung)"	"China"	"39.9064"	"116.3913"
"Hexenbürgermeisterhaus"	"Lemgo"	"52.025"	"8.899722"	"Kalebassengefäß mit fig. Holzstöpsel, umflochten (Idjuk-Fasern) (guri-guri)"	"Nord-Sumatra"	"3.9242"	"108.2052"
"Hexenbürgermeisterhaus"	"Lemgo"	"52.025"	"8.899722"	"Patronentasche mit Pulver- u. Kugelhalter eder, Bambus, Horn, Idjuk-Fasern) (kampil bedil)"	"Nord-Sumatra"	"3.9242"	"108.2052"
"Hexenbürgermeisterhaus"	"Lemgo"	"52.025"	"8.899722"	"Beschriftete Bambusröhre (porhalan)"	"Nord-Sumatra"	"3.9242"	"108.2052"
"Hexenbürgermeisterhaus"	"Lemgo"	"52.025"	"8.899722"	"Anthropomorphe Hocker-Figur (Holz, 1 Bleieinlage als Auge) (pagar)"	"Nord-Sumatra"	"3.9242"	"108.2052"
"Hexenbürgermeisterhaus"	"Lemgo"	"52.025"	"8.899722"	"Faltbuch (pustaha)"	"Nord-Sumatra"	"3.9242"	"108.2052"
"Hexenbürgermeisterhaus"	"Lemgo"	"52.025"	"8.899722"	"Speer (Bambus, Eisen)"	"Nord-Sumatra"	"3.9242"	"108.2052"
"Hexenbürgermeisterhaus"	"Lemgo"	"52.025"	"8.899722"	"Lanze (Bambus, Eisen) (hudjur)"	"Nord-Sumatra"	"3.9242"	"108.2052"
"Hexenbürgermeisterhaus"	"Lemgo"	"52.025"	"8.899722"	"Lanze (Bambus, Eisen) (hudjur)"	"Nord-Sumatra"	"3.9242"	"108.2052"
"Hexenbürgermeisterhaus"	"Lemgo"	"52.025"	"8.899722"	"Hausverzierung (Holz, farbig) (gajah dompak)"	"Nord-Sumatra"	"3.9242"	"108.2052"
"Hexenbürgermeisterhaus"	"Lemgo"	"52.025"	"8.899722"	"Hausverzierung (Holz, farbig) (singa-singa)"	"Nord-Sumatra"	"3.9242"	"108.2052"
"Hexenbürgermeisterhaus"	"Lemgo"	"52.025"	"8.899722"	"Pfeife (Messing) (tulpang)"	"Nord-Sumatra"	"3.9242"	"108.2052"
"Hexenbürgermeisterhaus"	"Lemgo"	"52.025"	"8.899722"	"Rassel (umflochtenes Büffelhorn) (Horn, Idjuk-Fasern)"	"Nord-Sumatra"	"3.9242"	"108.2052"
"Hexenbürgermeisterhaus"	"Lemgo"	"52.025"	"8.899722"	"Schwert mit Scheide, Silbereinlagen (Holz, Eisen, Silber- u. Kupfer-Metall) (lajuk-lajuk)"	"Sumatra"	"3.9242"	"108.2052"
"Hexenbürgermeisterhaus"	"Lemgo"	"52.025"	"8.899722"	"Messer mit Scheide, (Holz, Eisen, Silber-Metall) (piso)"	"Sumatra"	"3.9242"	"108.2052"
"Hexenbürgermeisterhaus"	"Lemgo"	"52.025"	"8.899722"	"Parademesser mit Scheide (Silbereinlage) (Holz, Eisen, Silber-Metall) (piso rempu pirak)"	"Nord-Sumatra"	"3.9242"	"108.2052"
"Hexenbürgermeisterhaus"	"Lemgo"	"52.025"	"8.899722"	"Schwert mit Scheide"	"Südostasien (AsSo), Indonesien, Nord-Sumatra"	"3.9242"	"108.2052"
"Hexenbürgermeisterhaus"	"Lemgo"	"52.025"	"8.899722"	"Horngefäß mit Holzdeckel (singa), Trageseil (Idjuk-Fasern) (naga morsarang)"	"Nord-Sumatra"	"3.9242"	"108.2052"
"Hexenbürgermeisterhaus"	"Lemgo"	"52.025"	"8.899722"	"Horngefäß mit Holzdeckel (naga morsarang)"	"Nord-Sumatra"	"3.9242"	"108.2052"
"Hexenbürgermeisterhaus"	"Lemgo"	"52.025"	"8.899722"	"Speer (Bambus, Eisen)"	"Nord-Sumatra"	"3.9242"	"108.2052"
"Hexenbürgermeisterhaus"	"Lemgo"	"52.025"	"8.899722"	"Speer (Bambus, Eisen)"	"Nord-Sumatra"	"3.9242"	"108.2052"
"Hexenbürgermeisterhaus"	"Lemgo"	"52.025"	"8.899722"	"Speer (Bambus, Eisen)"	"Nord-Sumatra"	"3.9242"	"108.2052"
"Hexenbürgermeisterhaus"	"Lemgo"	"52.025"	"8.899722"	"Speer (Bambus, Eisen)"	"Nord-Sumatra"	"3.9242"	"108.2052"
"Hexenbürgermeisterhaus"	"Lemgo"	"52.025"	"8.899722"	"Speer (Bambus, Eisen)"	"Nord-Sumatra"	"3.9242"	"108.2052"
"Hexenbürgermeisterhaus"	"Lemgo"	"52.025"	"8.899722"	"Schwert (Holz, Eisen) (surik)"	"Nord-Sumatra"	"3.9242"	"108.2052"
"Hexenbürgermeisterhaus"	"Lemgo"	"52.025"	"8.899722"	"Schwert mit Scheide (Holz, Eisen) (klewang)"	"Nord-Sumatra"	"3.9242"	"108.2052"
"Hexenbürgermeisterhaus"	"Lemgo"	"52.025"	"8.899722"	"Haumesser/Schwert (Holz, Eisen) (klewang)"	"Nord-Sumatra"	"3.9242"	"108.2052"
"Hexenbürgermeisterhaus"	"Lemgo"	"52.025"	"8.899722"	"Messer mit Scheide (Holz, Eisen) (piso)"	"Nord-Sumatra"	"3.9242"	"108.2052"
"Hexenbürgermeisterhaus"	"Lemgo"	"52.025"	"8.899722"	"Laute (Holz) (hasapi)"	"Nord-Sumatra"	"3.9242"	"108.2052"
"Hexenbürgermeisterhaus"	"Lemgo"	"52.025"	"8.899722"	"Zoomorphe Holzfigur (Huhn) Trageschnur (Idjuk-Fasern) (manuk-manuk)"	"Nord-Sumatra"	"3.9242"	"108.2052"
"Hexenbürgermeisterhaus"	"Lemgo"	"52.025"	"8.899722"	"Anthropomorphe Holzfigur, (Idjuk-Fasern) (pangulubalang surusuruan)"	"Nord-Sumatra"	"3.9242"	"108.2052"
"Hexenbürgermeisterhaus"	"Lemgo"	"52.025"	"8.899722"	"Messing-Beschlag einer Tasche (hadjut)"	"Nord-Sumatra"	"3.9242"	"108.2052"
"Hexenbürgermeisterhaus"	"Lemgo"	"52.025"	"8.899722"	"Messing-Beschlag, Singa-Motiv Tragekette einer Tasche (hadjut) (Messing, Leder, Holzstifte)"	"Nord-Sumatra"	"3.9242"	"108.2052"
"Hexenbürgermeisterhaus"	"Lemgo"	"52.025"	"8.899722"	"Messing-Beschlag einer Taschen (hadjut)"	"Nord-Sumatra"	"3.9242"	"108.2052"
"Hexenbürgermeisterhaus"	"Lemgo"	"52.025"	"8.899722"	"Messer mit Scheide, Elfenbein-Griff (Holz, Eisen, Elfenbein, Silber-Metall) (piso sukul gading)"	"Nord-Sumatra"	"3.9242"	"108.2052"
"Hexenbürgermeisterhaus"	"Lemgo"	"52.025"	"8.899722"	"Kalebassengefäß mit fig. Holzstöpsel, umflochten (Idjuk-Fasern) (guri-guri)"	"Nord-Sumatra"	"3.9242"	"108.2052"
"Hexenbürgermeisterhaus"	"Lemgo"	"52.025"	"8.899722"	"Messinghorn, Waffengriff"	"Nord-Sumatra"	"3.9242"	"108.2052"
"Hexenbürgermeisterhaus"	"Lemgo"	"52.025"	"8.899722"	"Pulverbehälter (Horn mit Holzdeckel) (Ranken- u. Eidechsen-Motiv) (salempang)"	"Nord-Sumatra"	"3.9242"	"108.2052"
"Hexenbürgermeisterhaus"	"Lemgo"	"52.025"	"8.899722"	"Oberteil eines Zauberstabs: Reiterfigur auf einer singa (Holz, blauer Stoffstrei[1]fen) (tungkot-malehat)"	"Nord-Sumatra"	"3.9242"	"108.2052"
"Hexenbürgermeisterhaus"	"Lemgo"	"52.025"	"8.899722"	"Holzdeckel v. Palmenweinbehälter, dreieckige Einlegearbeiten aus Kupfer"	"Nord-Sumatra"	"3.9242"	"108.2052"
"Hexenbürgermeisterhaus"	"Lemgo"	"52.025"	"8.899722"	"Faltbuch (pustaha)"	"Nord-Sumatra"	"3.9242"	"108.2052"
"Hexenbürgermeisterhaus"	"Lemgo"	"52.025"	"8.899722"	"Grundplatte einer Tasche (hadjut) (Holz)"	"Nord-Sumatra"	"3.9242"	"108.2052"
"Hexenbürgermeisterhaus"	"Lemgo"	"52.025"	"8.899722"	"Zoomorphe Holzfigur (Hund) (Tierfell, bindu-matoga, 1 Pukpuk-Loch) (biang-biang)"	"Nord-Sumatra"	"3.9242"	"108.2052"
"Hexenbürgermeisterhaus"	"Lemgo"	"52.025"	"8.899722"	"Anthropomorphe Holzfigur, (Idjuk-Fasern, 2 Löcher für pukpuk) (pangulubalang surusuruan)"	"Nord-Sumatra"	"3.9242"	"108.2052"
"Hexenbürgermeisterhaus"	"Lemgo"	"52.025"	"8.899722"	"Anthropomorphe Hocker-Figur (Holz, Tierfell, Nagel, 1 Loch für pukpuk) (pagar)"	"Nord-Sumatra"	"3.9242"	"108.2052"
"Hexenbürgermeisterhaus"	"Lemgo"	"52.025"	"8.899722"	"Anthropomorphe Holzfigur, umwickelt (Idjuk-Fasern, Tierfell) (pangulubalang surusuruan)"	"Nord-Sumatra"	"3.9242"	"108.2052"
"Hexenbürgermeisterhaus"	"Lemgo"	"52.025"	"8.899722"	"Pulverbehälter (81/1716) (Horn mit Holzdeckel) (Ranken-, Blumenmotiv; Singa-Motiv) (salempang) mit Verschluss (81/1716a)"	"Nord-Sumatra"	"3.9242"	"108.2052"
"Hexenbürgermeisterhaus"	"Lemgo"	"52.025"	"8.899722"	"Pulverbehälter (Horn mit Holzdeckel) (Ranken-, Blumenmotiv; singa; Eidechse) (salempang)"	"Nord-Sumatra"	"3.9242"	"108.2052"
"Hexenbürgermeisterhaus"	"Lemgo"	"52.025"	"8.899722"	"Plastisch gestalteter Verschluss aus Holz: anthropomorphe Reiterfigur auf einer singa"	"Nord-Sumatra"	"3.9242"	"108.2052"
"Hexenbürgermeisterhaus"	"Lemgo"	"52.025"	"8.899722"	"Amulettknochen (porhalan)"	"Nord-Sumatra"	"3.9242"	"108.2052"
"Hexenbürgermeisterhaus"	"Lemgo"	"52.025"	"8.899722"	"Orakel- oder Amulettknochen, Liebesorakel (porhalan)"	"Nord-Sumatra"	"3.9242"	"108.2052"
"Hexenbürgermeisterhaus"	"Lemgo"	"52.025"	"8.899722"	"Faltbuch (pustaha)"	"Nord-Sumatra"	"3.9242"	"108.2052"
"Hexenbürgermeisterhaus"	"Lemgo"	"52.025"	"8.899722"	"Messingverzierung, Singa-Motiv"	"Nord-Sumatra"	"3.9242"	"108.2052"
"Hexenbürgermeisterhaus"	"Lemgo"	"52.025"	"8.899722"	"Stück einer Ledertapete"	"Zentraleuropa (vermutlich)"	"50.0781"	"14.4431"
"Hexenbürgermeisterhaus"	"Lemgo"	"52.025"	"8.899722"	"Stück einer Ledertapete"	"Zentraleuropa (vermutlich)"	"50.0781"	"14.4431"
"Hexenbürgermeisterhaus"	"Lemgo"	"52.025"	"8.899722"	"männliche Standfigur"	"China"	"39.9064"	"116.3913"
"Hexenbürgermeisterhaus"	"Lemgo"	"52.025"	"8.899722"	"Stück einer Ledertapete"	"Zentraleuropa (vermutlich)"	"50.0781"	"14.4431"
"Hexenbürgermeisterhaus"	"Lemgo"	"52.025"	"8.899722"	"Fächer"	"China"	"39.9064"	"116.3913"
"Hexenbürgermeisterhaus"	"Lemgo"	"52.025"	"8.899722"	"Holzetui"	"China"	"39.9064"	"116.3913"
"Hexenbürgermeisterhaus"	"Lemgo"	"52.025"	"8.899722"	"Stück einer Ledertapete"	"Zentraleuropa (vermutlich)"	"50.0781"	"14.4431"
"Hexenbürgermeisterhaus"	"Lemgo"	"52.025"	"8.899722"	"Rollbild"	"Japan"	"35.6897"	"139.6922"
"Hexenbürgermeisterhaus"	"Lemgo"	"52.025"	"8.899722"	"Rollbild"	"Japan"	"35.6897"	"139.6922"
"Hexenbürgermeisterhaus"	"Lemgo"	"52.025"	"8.899722"	"Teppich"	"Grenzgebiet Türkei"	"41.8568"	"43.4267"
"Hexenbürgermeisterhaus"	"Lemgo"	"52.025"	"8.899722"	"Porzellandose mit Deckel (Räucherkoro)"	"China oder Japan"	"42.52"	"122.61"
"Hexenbürgermeisterhaus"	"Lemgo"	"52.025"	"8.899722"	"Schal"	"Zentraleuropa (vermutlich)"	"50.0781"	"14.4431"
"Hexenbürgermeisterhaus"	"Lemgo"	"52.025"	"8.899722"	"Messingverzierung"	"Nord-Sumatra"	"3.9242"	"108.2052"
"Hexenbürgermeisterhaus"	"Lemgo"	"52.025"	"8.899722"	"2 Armbrustholzen"	"Soest (Deutschland)"	"51.5745"	"8.0797"
"Hexenbürgermeisterhaus"	"Lemgo"	"52.025"	"8.899722"	"Fächer"	"China"	"39.9064"	"116.3913"
"Hexenbürgermeisterhaus"	"Lemgo"	"52.025"	"8.899722"	"Fächer"	"China"	"39.9064"	"116.3913"
"Hexenbürgermeisterhaus"	"Lemgo"	"52.025"	"8.899722"	"Wurzelholz"	"China"	"39.9064"	"116.3913"
"Museum der Stadt Minden"	"Minden"	"52.28796"	"8.91386"	"Lanze"	"Kenia oder Tansania"	"-2.5485"	"36.7851"
"Museum der Stadt Minden"	"Minden"	"52.28796"	"8.91386"	"Lanze"	"Kenia oder Tansania"	"-2.5485"	"36.7851"
"Museum der Stadt Minden"	"Minden"	"52.28796"	"8.91386"	"Lanze"	"Kenia oder Tansania"	"-2.5485"	"36.7851"
"Museum der Stadt Minden"	"Minden"	"52.28796"	"8.91386"	"Lanze"	"Kenia oder Tansania"	"-2.5485"	"36.7851"
"Museum der Stadt Minden"	"Minden"	"52.28796"	"8.91386"	"Lanze"	"Kenia oder Tansania"	"-2.5485"	"36.7851"
"Museum der Stadt Minden"	"Minden"	"52.28796"	"8.91386"	"Lanze"	"Kenia oder Tansania"	"-2.5485"	"36.7851"
"Museum der Stadt Minden"	"Minden"	"52.28796"	"8.91386"	"Bogen"	"Neu-Guinea (vermütlich)"	"-9.4744"	"147.1600"
"Museum der Stadt Minden"	"Minden"	"52.28796"	"8.91386"	"Bogen"	"Neu-Guinea (vermütlich)"	"-9.4744"	"147.1600"
"Museum der Stadt Minden"	"Minden"	"52.28796"	"8.91386"	"Bogen"	"Neu-Guinea"	"-9.4744"	"147.1600"
"Museum der Stadt Minden"	"Minden"	"52.28796"	"8.91386"	"verm. Pfeilschaft"	NA	NA	NA
"Museum der Stadt Minden"	"Minden"	"52.28796"	"8.91386"	"Pfeil"	"südl. Afrika (vermütlich)"	"-33.9291"	"18.4174"
"Museum der Stadt Minden"	"Minden"	"52.28796"	"8.91386"	"Pfeilspitze"	"Ostafrika (vermütlich)"	"-6.8000"	"39.2833"
"Museum der Stadt Minden"	"Minden"	"52.28796"	"8.91386"	"Pfeilspitze"	"Ostafrika (vermütlich)"	"-6.8000"	"39.2833"
"Museum der Stadt Minden"	"Minden"	"52.28796"	"8.91386"	"Pfeilspitzen"	"Sahara/Tassali-Gebirge (Libyen/Algerien)"	"26.5173"	"8.4569"
"Museum der Stadt Minden"	"Minden"	"52.28796"	"8.91386"	"Kugelkopfkeule"	NA	NA	NA
"Museum der Stadt Minden"	"Minden"	"52.28796"	"8.91386"	"Kugelkopfkeule bzw. Wurzelstockkeule"	NA	NA	NA
"Museum der Stadt Minden"	"Minden"	"52.28796"	"8.91386"	"Wurzelstockkeule"	NA	NA	NA
"Museum der Stadt Minden"	"Minden"	"52.28796"	"8.91386"	"Kugelkopfkeule"	NA	NA	NA
"Museum der Stadt Minden"	"Minden"	"52.28796"	"8.91386"	"Dolch"	"Westafrika (verm.) od. Niloten"	"6.1582"	"1.2406"
"Museum der Stadt Minden"	"Minden"	"52.28796"	"8.91386"	"Dolch"	"Westafrika (verm.) od. Niloten"	"6.1582"	"1.2406"
"Museum der Stadt Minden"	"Minden"	"52.28796"	"8.91386"	"Dolch"	"Westafrika (verm.) od. Niloten"	"6.1582"	"1.2406"
"Museum der Stadt Minden"	"Minden"	"52.28796"	"8.91386"	"Armdolch"	"Togo (vermütlich)"	"6.1582"	"1.2406"
"Museum der Stadt Minden"	"Minden"	"52.28796"	"8.91386"	"Dolch"	"Westafrika (verm.) od. Niloten"	"6.1582"	"1.2406"
"Museum der Stadt Minden"	"Minden"	"52.28796"	"8.91386"	"Dolch"	NA	NA	NA
"Museum der Stadt Minden"	"Minden"	"52.28796"	"8.91386"	"Dolch"	"Westafrika (verm.) od. Niloten"	"6.1582"	"1.2406"
"Museum der Stadt Minden"	"Minden"	"52.28796"	"8.91386"	"Dolch"	"Marokko"	"33.9668"	"-6.8394"
"Museum der Stadt Minden"	"Minden"	"52.28796"	"8.91386"	"Säbel"	"Thailand"	"13.7622"	"100.4940"
"Museum der Stadt Minden"	"Minden"	"52.28796"	"8.91386"	"Haumesser (kukri?)"	"Nepal"	"27.7091"	"85.3209"
"Museum der Stadt Minden"	"Minden"	"52.28796"	"8.91386"	"Haumesser (kukri?)"	"Himalaya"	"27.7091"	"85.3209"
"Museum der Stadt Minden"	"Minden"	"52.28796"	"8.91386"	"Messer"	"Nepal"	"27.7091"	"85.3209"
"Museum der Stadt Minden"	"Minden"	"52.28796"	"8.91386"	"Modellboot (Oruwa)"	"Sri Lanka"	"6.9051"	"79.8558"
"Museum der Stadt Minden"	"Minden"	"52.28796"	"8.91386"	"Moletsakette"	"Südwestafrika"	"-22.5586"	"17.0587"
"Museum der Stadt Minden"	"Minden"	"52.28796"	"8.91386"	"Koran"	"Bursa (Türkei)"	"40.1867"	"29.0676"
"Museum der Stadt Minden"	"Minden"	"52.28796"	"8.91386"	"Puff"	"Marokko (Fes)"	"34.0260"	"-5.0079"
"Museum der Stadt Minden"	"Minden"	"52.28796"	"8.91386"	"Messingteller"	"Marokko"	"29.9787"	"-5.5045"
"Museum der Stadt Minden"	"Minden"	"52.28796"	"8.91386"	"Zuckerhut"	"Algerien (Tamarasset)"	"22.7774"	"5.5424"
"Museum der Stadt Minden"	"Minden"	"52.28796"	"8.91386"	"Ausweis"	"Nepal (Katmandu)"	"27.7091"	"85.3209"
"Museum der Stadt Minden"	"Minden"	"52.28796"	"8.91386"	"Schnecke"	"Taiwan"	"22.6150"	"120.3197"
"Museum der Stadt Minden"	"Minden"	"52.28796"	"8.91386"	"Boleadoras"	"Argentina (Buenos Aires)"	"-34.6161"	"-58.4333"
"Museum der Stadt Minden"	"Minden"	"52.28796"	"8.91386"	"hözernes Kurzspeer"	"Ecuador (Anden)"	"-0.2180"	"-78.5105"
"Museum der Stadt Minden"	"Minden"	"52.28796"	"8.91386"	"Schmuckteller"	"Taiwan (Taipeh)"	"25.0417"	"121.5639"
"Museum der Stadt Minden"	"Minden"	"52.28796"	"8.91386"	"\"Götterauge\""	"USA/ New Mexiko (Sheeprock)"	"36.7942"	"-108.7006"
"Museum der Stadt Minden"	"Minden"	"52.28796"	"8.91386"	"Geldtäschchen"	"Bolivien (um La Paz)"	"-16.3976"	"-68.0790"
"Museum der Stadt Minden"	"Minden"	"52.28796"	"8.91386"	"Gebetsmühle"	"Nepal (Kloster Beding)"	"27.9004"	"86.3743"
"Museum der Stadt Minden"	"Minden"	"52.28796"	"8.91386"	"Andachtsbuch"	"Nepal  (Lukla)"	"27.6841"	"86.7304"
"Museum der Stadt Minden"	"Minden"	"52.28796"	"8.91386"	"Druckstock"	"Nepal (Kloster Beding)"	"27.9004"	"86.3743"
"Museum der Stadt Minden"	"Minden"	"52.28796"	"8.91386"	"Druckstock"	"Nepal (Kloster Beding)"	"27.9004"	"86.3743"
"Museum der Stadt Minden"	"Minden"	"52.28796"	"8.91386"	"Gebetstafel, Mani-Stein"	"Nepal (Kloster Beding)"	"27.9004"	"86.3743"
"Museum der Stadt Minden"	"Minden"	"52.28796"	"8.91386"	"Tempelglocke mit Griff"	"Nepal"	"27.7091"	"85.3209"
"Museum der Stadt Minden"	"Minden"	"52.28796"	"8.91386"	"Sherpa-Geige und -Bogen"	"Nepal ( verm. Solo Khumbu)"	"27.7316"	"86.7585"
"Museum der Stadt Minden"	"Minden"	"52.28796"	"8.91386"	"Miniaturbuddha"	"Nepal (Katmandu)"	"27.7091"	"85.3209"
"Museum der Stadt Minden"	"Minden"	"52.28796"	"8.91386"	"Fettbehälter"	"Südwestafrika"	"-22.5586"	"17.0587"
"Museum der Stadt Minden"	"Minden"	"52.28796"	"8.91386"	"Poncho"	"Ecuador (Quito)"	"-0.2180"	"-78.5105"
"Museum der Stadt Minden"	"Minden"	"52.28796"	"8.91386"	"Poncho"	"Ecuador (Rio Bamba)"	"-1.6690"	"-78.6726"
"Museum der Stadt Minden"	"Minden"	"52.28796"	"8.91386"	"Turbantuch"	"Algerien (Asacrem)"	"36.7792"	"3.0611"
"Museum der Stadt Minden"	"Minden"	"52.28796"	"8.91386"	"Burnusutch"	"Libanon"	"33.8956"	"35.5432"
"Museum der Stadt Minden"	"Minden"	"52.28796"	"8.91386"	"Hut"	"USA (Santa Fe)"	"35.6965"	"-105.8934"
"Museum der Stadt Minden"	"Minden"	"52.28796"	"8.91386"	"Reishut"	"Sumatra/ Toba-See"	"2.7807"	"98.6608"
"Museum der Stadt Minden"	"Minden"	"52.28796"	"8.91386"	"Schirm"	"Hongkong"	"22.2465"	"114.2095"
"Museum der Stadt Minden"	"Minden"	"52.28796"	"8.91386"	"Burnusbefestigung"	"Libanon"	"33.8956"	"35.5432"
"Museum der Stadt Minden"	"Minden"	"52.28796"	"8.91386"	"Federkopfschmuck"	"USA (Santa Fe)"	"35.6965"	"-105.8934"
"Museum der Stadt Minden"	"Minden"	"52.28796"	"8.91386"	"Zierkamm"	"Afrika"	"0.876"	"17.232"
"Museum der Stadt Minden"	"Minden"	"52.28796"	"8.91386"	"Armband"	"Nepal"	"27.7091"	"85.3209"
"Museum der Stadt Minden"	"Minden"	"52.28796"	"8.91386"	"Amulett"	"Nepal (Katmandu)"	"27.7091"	"85.3209"
"Museum der Stadt Minden"	"Minden"	"52.28796"	"8.91386"	"Amulett"	"Nepal (Katmandu)"	"27.7091"	"85.3209"
"Museum der Stadt Minden"	"Minden"	"52.28796"	"8.91386"	"Halskette"	"Algerien (verm. Sahara)"	"21.3110"	"6.8170"
"Museum der Stadt Minden"	"Minden"	"52.28796"	"8.91386"	"Kette"	"Algerien (Oase Djanett)"	"23.9117"	"10.1150"
"Museum der Stadt Minden"	"Minden"	"52.28796"	"8.91386"	"Amulett aus Stoff"	"Algerien"	"36.7792"	"3.0611"
"Museum der Stadt Minden"	"Minden"	"52.28796"	"8.91386"	"Band"	"Guatemala (Atitlan-See)"	"14.6802"	"-91.2014"
"Museum der Stadt Minden"	"Minden"	"52.28796"	"8.91386"	"Seil"	"Bolivien"	"-16.3976"	"-68.0790"
"Museum der Stadt Minden"	"Minden"	"52.28796"	"8.91386"	"Fächer"	"Japan (Tokio)"	"35.6897"	"139.6922"
"Museum der Stadt Minden"	"Minden"	"52.28796"	"8.91386"	"Batiktuch"	"Sri Lanka (Colombo)"	"6.9051"	"79.8558"
"Museum der Stadt Minden"	"Minden"	"52.28796"	"8.91386"	"Tuch"	"Guatemala (Atitlan-See)"	"14.6802"	"-91.2014"
"Museum der Stadt Minden"	"Minden"	"52.28796"	"8.91386"	"Tuch"	"Thailand (Bangkok)"	"13.7622"	"100.4940"
"Museum der Stadt Minden"	"Minden"	"52.28796"	"8.91386"	"Speer"	"Neuguinea"	"-9.4744"	"147.1600"
"Museum der Stadt Minden"	"Minden"	"52.28796"	"8.91386"	"Speer"	"Neuguinea"	"-9.4744"	"147.1600"
"Museum der Stadt Minden"	"Minden"	"52.28796"	"8.91386"	"Speer"	"Neuguinea"	"-9.4744"	"147.1600"
"Museum der Stadt Minden"	"Minden"	"52.28796"	"8.91386"	"Speer"	"Neuguinea"	"-9.4744"	"147.1600"
"Museum der Stadt Minden"	"Minden"	"52.28796"	"8.91386"	"Speer"	"Neuguinea"	"-9.4744"	"147.1600"
"Museum der Stadt Minden"	"Minden"	"52.28796"	"8.91386"	"Speer"	"Neuguinea"	"-9.4744"	"147.1600"
"Museum der Stadt Minden"	"Minden"	"52.28796"	"8.91386"	"Speer"	"Neuguinea"	"-9.4744"	"147.1600"
"Museum der Stadt Minden"	"Minden"	"52.28796"	"8.91386"	"Kriegsspeer"	"Kenia"	"-1.2903"	"36.8471"
"Museum der Stadt Minden"	"Minden"	"52.28796"	"8.91386"	"Speer"	"Uganda (Ruwenzuri-Gebirge)"	"0.1964"	"30.0092"
"Museum der Stadt Minden"	"Minden"	"52.28796"	"8.91386"	"Speer/ Pfeil"	"Neuguinea"	"-9.4744"	"147.1600"
"Museum der Stadt Minden"	"Minden"	"52.28796"	"8.91386"	"Speer"	"Neuguinea"	"-9.4744"	"147.1600"
"Museum der Stadt Minden"	"Minden"	"52.28796"	"8.91386"	"Speer"	"Neuguinea"	"-9.4744"	"147.1600"
"Museum der Stadt Minden"	"Minden"	"52.28796"	"8.91386"	"Speer/ Pfeil"	"Neuguinea"	"-9.4744"	"147.1600"
"Museum der Stadt Minden"	"Minden"	"52.28796"	"8.91386"	"Speer"	"Sudan oder Kenia"	"7.1954"	"35.4211"
"Museum der Stadt Minden"	"Minden"	"52.28796"	"8.91386"	"Speer"	"Sudan oder Kenia"	"7.1954"	"35.4211"
"Museum der Stadt Minden"	"Minden"	"52.28796"	"8.91386"	"Speer"	"Sudan oder Kenia"	"7.1954"	"35.4211"
"Museum der Stadt Minden"	"Minden"	"52.28796"	"8.91386"	"Speer"	"Sudan oder Kenia"	"7.1954"	"35.4211"
"Museum der Stadt Minden"	"Minden"	"52.28796"	"8.91386"	"Speer"	"Sudan oder Kenia"	"7.1954"	"35.4211"
"Museum der Stadt Minden"	"Minden"	"52.28796"	"8.91386"	"Speer"	"Sudan oder Kenia"	"7.1954"	"35.4211"
"Museum der Stadt Minden"	"Minden"	"52.28796"	"8.91386"	"Speer"	"Sudan oder Kenia"	"7.1954"	"35.4211"
"Museum der Stadt Minden"	"Minden"	"52.28796"	"8.91386"	"Speerblatt"	"Sudan oder Kenia"	"7.1954"	"35.4211"
"Museum der Stadt Minden"	"Minden"	"52.28796"	"8.91386"	"Speerspitze"	"Neuguinea (verm.)"	"-9.4744"	"147.1600"
"Museum der Stadt Minden"	"Minden"	"52.28796"	"8.91386"	"Speer"	"Neuguinea (vermt. Sepik)"	"-4.2894"	"142.2867"
"Museum der Stadt Minden"	"Minden"	"52.28796"	"8.91386"	"Speer"	"Neuguinea (verm.)"	"-9.4744"	"147.1600"
"Museum der Stadt Minden"	"Minden"	"52.28796"	"8.91386"	"Speer"	"Neuguinea (verm.)"	"-9.4744"	"147.1600"
"Museum der Stadt Minden"	"Minden"	"52.28796"	"8.91386"	"Speer"	"Neuguinea (verm.)"	"-9.4744"	"147.1600"
"Museum der Stadt Minden"	"Minden"	"52.28796"	"8.91386"	"kl. Römischer Portraitkopf"	"Karthago (Tunesien)"	"36.8559"	"10.3337"
"Museum der Stadt Minden"	"Minden"	"52.28796"	"8.91386"	"Elfenbeinfigur"	"Hongkong"	"22.2465"	"114.2095"
"Museum der Stadt Minden"	"Minden"	"52.28796"	"8.91386"	"Maske"	"Hongkong"	"22.2465"	"114.2095"
"Museum der Stadt Minden"	"Minden"	"52.28796"	"8.91386"	"Holzmaske"	"Ecuador (Ostkordilleren)"	"-0.2180"	"-78.5105"
"Museum der Stadt Minden"	"Minden"	"52.28796"	"8.91386"	"Holzmaske"	"Tansania (Massai-Steppe)"	"-6.8000"	"39.2833"
"Museum der Stadt Minden"	"Minden"	"52.28796"	"8.91386"	"Maske"	"Indonesien (um Djarkarta)"	"-6.1793"	"106.8455"
"Museum der Stadt Minden"	"Minden"	"52.28796"	"8.91386"	"Maske (Kolam-Maske)"	"Sri Lanka (Westküste)"	"6.9051"	"79.8558"
"Museum der Stadt Minden"	"Minden"	"52.28796"	"8.91386"	"Holzmaske"	"Taiwan"	"25.0417"	"121.5639"
"Museum der Stadt Minden"	"Minden"	"52.28796"	"8.91386"	"Holzelefanten"	"Sri Lanka (um Colombo)"	"6.9051"	"79.8558"
"Museum der Stadt Minden"	"Minden"	"52.28796"	"8.91386"	"Holzelefant"	"Kenia"	"-1.2903"	"36.8471"
"Museum der Stadt Minden"	"Minden"	"52.28796"	"8.91386"	"Tierfigur"	"Kenia"	"-1.2903"	"36.8471"
"Museum der Stadt Minden"	"Minden"	"52.28796"	"8.91386"	"Madonna"	"Ecuador"	"-0.2180"	"-78.5105"
"Museum der Stadt Minden"	"Minden"	"52.28796"	"8.91386"	"Holzfigur"	"Hongkong"	"22.2465"	"114.2095"
"Museum der Stadt Minden"	"Minden"	"52.28796"	"8.91386"	"Holzfigur"	"Ägypten (Port Said)"	"31.2659"	"32.3074"
"Museum der Stadt Minden"	"Minden"	"52.28796"	"8.91386"	"Holzfigur"	"Bolivien (Königskordilleren)"	"-16.9621"	"-67.2003"
"Museum der Stadt Minden"	"Minden"	"52.28796"	"8.91386"	"Flöte"	"Bolivien/ Peru (Titicacasee)"	"-15.9024"	"-69.2911"
"Museum der Stadt Minden"	"Minden"	"52.28796"	"8.91386"	"Holzfigur"	"Bolivien (Königskordilleren)"	"-16.9621"	"-67.2003"
"Museum der Stadt Minden"	"Minden"	"52.28796"	"8.91386"	"Eule"	"Indonesien (Djarkarta)"	"-6.1793"	"106.8455"
"Museum der Stadt Minden"	"Minden"	"52.28796"	"8.91386"	"Tonfigur"	"Peru (im Titicacasee)"	"-15.9024"	"-69.2911"
"Museum der Stadt Minden"	"Minden"	"52.28796"	"8.91386"	"Tonfigur"	"Bolivien (Königskordilleren)"	"-16.9621"	"-67.2003"
"Museum der Stadt Minden"	"Minden"	"52.28796"	"8.91386"	"Tonfiguren"	NA	NA	NA
"Museum der Stadt Minden"	"Minden"	"52.28796"	"8.91386"	"Tonfigur"	NA	NA	NA
"Museum der Stadt Minden"	"Minden"	"52.28796"	"8.91386"	"Tonfigur"	NA	NA	NA
"Museum der Stadt Minden"	"Minden"	"52.28796"	"8.91386"	"Gebetsteppich"	"Nepal (Dorf bei Kadmandu)"	"27.7091"	"85.3209"
"Museum der Stadt Minden"	"Minden"	"52.28796"	"8.91386"	"Teppich"	"Ecuador (Rio Bamba)"	"-1.6690"	"-78.6726"
"Museum der Stadt Minden"	"Minden"	"52.28796"	"8.91386"	"Druck"	"Bangkok"	"13.7622"	"100.4940"
"Museum der Stadt Minden"	"Minden"	"52.28796"	"8.91386"	"kl. Wandbehang"	"Japan (Fudschijama)"	"35.1413"	"138.4105"
"Museum der Stadt Minden"	"Minden"	"52.28796"	"8.91386"	"Lanze"	"Kenia oder Tansania (verm.)"	"-2.5485"	"36.7851"
"Deutsches Tabak- und Zigarrenmuseum"	"Bünde"	"52.195961"	"8.581675"	"Pfeifenkopf"	"Kamerun (Grasland)"	"3.8414"	"11.4921"
"Deutsches Tabak- und Zigarrenmuseum"	"Bünde"	"52.195961"	"8.581675"	"Pfeife"	"China"	"39.9064"	"116.3913"
"Deutsches Tabak- und Zigarrenmuseum"	"Bünde"	"52.195961"	"8.581675"	"Pfeifenset"	"Japan"	"35.6897"	"139.6922"
"Deutsches Tabak- und Zigarrenmuseum"	"Bünde"	"52.195961"	"8.581675"	"Pfeifenset"	"Japan"	"35.6897"	"139.6922"
"Deutsches Tabak- und Zigarrenmuseum"	"Bünde"	"52.195961"	"8.581675"	"Pfeifenkopf"	"Kamerun (Grasland)"	"3.8414"	"11.4921"
"Deutsches Tabak- und Zigarrenmuseum"	"Bünde"	"52.195961"	"8.581675"	"Metallpfeifenkopf"	"Iran"	"35.6922"	"51.3910"
"Deutsches Tabak- und Zigarrenmuseum"	"Bünde"	"52.195961"	"8.581675"	"Pfeife
Calumettyp"	"North America (Plains Area)"	NA	NA
"Deutsches Tabak- und Zigarrenmuseum"	"Bünde"	"52.195961"	"8.581675"	"Opiumpfeife"	"China"	"39.9064"	"116.3913"
"Deutsches Tabak- und Zigarrenmuseum"	"Bünde"	"52.195961"	"8.581675"	"Wasserpfeife"	"China"	"39.9064"	"116.3913"
"Deutsches Tabak- und Zigarrenmuseum"	"Bünde"	"52.195961"	"8.581675"	"Wasserpfeife"	"China"	"39.9064"	"116.3913"
"Deutsches Tabak- und Zigarrenmuseum"	"Bünde"	"52.195961"	"8.581675"	"Pfeifenset"	"Japan"	"35.6897"	"139.6922"
"Deutsches Tabak- und Zigarrenmuseum"	"Bünde"	"52.195961"	"8.581675"	"Zigarettenhalter"	"Türkei"	"41.0118"	"28.9672"
"Deutsches Tabak- und Zigarrenmuseum"	"Bünde"	"52.195961"	"8.581675"	"Tabakbeutel"	"North America (Plains Area)"	NA	NA
"Deutsches Tabak- und Zigarrenmuseum"	"Bünde"	"52.195961"	"8.581675"	"Tabakbeutel"	"China"	"39.9064"	"116.3913"
"Deutsches Tabak- und Zigarrenmuseum"	"Bünde"	"52.195961"	"8.581675"	"Feuerzeug"	"China"	"39.9064"	"116.3913"
"Deutsches Tabak- und Zigarrenmuseum"	"Bünde"	"52.195961"	"8.581675"	"Opiumpfeife"	"China"	"39.9064"	"116.3913"
"Deutsches Tabak- und Zigarrenmuseum"	"Bünde"	"52.195961"	"8.581675"	"Wasserpfeife
"	"China"	"39.9064"	"116.3913"
"Deutsches Tabak- und Zigarrenmuseum"	"Bünde"	"52.195961"	"8.581675"	"Pfeifenkopf"	"North America (Östliches Waldland)"	NA	NA
"Deutsches Tabak- und Zigarrenmuseum"	"Bünde"	"52.195961"	"8.581675"	"Pfeifenkopf
Calumettyp"	"North America (Plains Area)"	NA	NA
"Deutsches Tabak- und Zigarrenmuseum"	"Bünde"	"52.195961"	"8.581675"	"Räuchergefäß"	"China"	"39.9064"	"116.3913"
"Deutsches Tabak- und Zigarrenmuseum"	"Bünde"	"52.195961"	"8.581675"	"Tabakdose, Pfeifen
halter u. Pfeife
"	"Japan (Hokkaido)"	"43.0621"	"141.3544"
"Deutsches Tabak- und Zigarrenmuseum"	"Bünde"	"52.195961"	"8.581675"	"Pfeifenset"	"Japan (Hokkaido)"	"43.0621"	"141.3544"
"Deutsches Tabak- und Zigarrenmuseum"	"Bünde"	"52.195961"	"8.581675"	"Wasserpfeife"	"China"	"39.9064"	"116.3913"
"Deutsches Tabak- und Zigarrenmuseum"	"Bünde"	"52.195961"	"8.581675"	"Pfeifenkopf"	"China"	"39.9064"	"116.3913"
"Deutsches Tabak- und Zigarrenmuseum"	"Bünde"	"52.195961"	"8.581675"	"Pfeife"	"Mississippi-Ohio (Valley Areal)"	"37.0227"	"-89.1053"
"Deutsches Tabak- und Zigarrenmuseum"	"Bünde"	"52.195961"	"8.581675"	"Pfeife"	"North America (Nord ost Waldland)"	NA	NA
"Deutsches Tabak- und Zigarrenmuseum"	"Bünde"	"52.195961"	"8.581675"	"Pfeifenkopf"	"Wisconsin
"	"43.0778"	"-89.3824"
"Deutsches Tabak- und Zigarrenmuseum"	"Bünde"	"52.195961"	"8.581675"	"Pfeifenkopf, Dakota Typ"	"Nord Ameika (Plains)"	NA	NA
"Deutsches Tabak- und Zigarrenmuseum"	"Bünde"	"52.195961"	"8.581675"	"Räuchergefäß
"	"China"	"39.9064"	"116.3913"
"Deutsches Tabak- und Zigarrenmuseum"	"Bünde"	"52.195961"	"8.581675"	"Opiumpfeife
"	"China"	"39.9064"	"116.3913"
"Deutsches Tabak- und Zigarrenmuseum"	"Bünde"	"52.195961"	"8.581675"	"Zigarettenspitze
in
Tchiboukform"	"Türkei"	"41.0118"	"28.9672"
"Deutsches Tabak- und Zigarrenmuseum"	"Bünde"	"52.195961"	"8.581675"	"Zigarettenhalter"	"Türkei"	"41.0118"	"28.9672"
"Deutsches Tabak- und Zigarrenmuseum"	"Bünde"	"52.195961"	"8.581675"	"Röhrenpfeife"	"Indien"	"28.5635"	"77.1528"
"Deutsches Tabak- und Zigarrenmuseum"	"Bünde"	"52.195961"	"8.581675"	"Röhrenpfeife"	"Indien"	"28.5635"	"77.1528"
"Deutsches Tabak- und Zigarrenmuseum"	"Bünde"	"52.195961"	"8.581675"	"Röhrenpfeife"	"Indien"	"28.5635"	"77.1528"
"Deutsches Tabak- und Zigarrenmuseum"	"Bünde"	"52.195961"	"8.581675"	"Stofftäschchen"	"Afghanistan"	"34.5307"	"69.1780"
"Deutsches Tabak- und Zigarrenmuseum"	"Bünde"	"52.195961"	"8.581675"	"Pfeife"	"Iran"	"35.6922"	"51.3910"
"Deutsches Tabak- und Zigarrenmuseum"	"Bünde"	"52.195961"	"8.581675"	"Pfeife"	"Persien / Iran"	"35.6922"	"51.3910"
"Deutsches Tabak- und Zigarrenmuseum"	"Bünde"	"52.195961"	"8.581675"	"Pfeife"	"Iran"	"35.6922"	"51.3910"
"Deutsches Tabak- und Zigarrenmuseum"	"Bünde"	"52.195961"	"8.581675"	"Wasserpfeife"	"Türkei"	"41.0118"	"28.9672"
"Deutsches Tabak- und Zigarrenmuseum"	"Bünde"	"52.195961"	"8.581675"	"Zigarettendose"	"Türkei (Van)"	"38.5116"	"43.3764"
"Deutsches Tabak- und Zigarrenmuseum"	"Bünde"	"52.195961"	"8.581675"	"Silberpfeife"	"Birma"	"19.7591"	"96.1341"
"Deutsches Tabak- und Zigarrenmuseum"	"Bünde"	"52.195961"	"8.581675"	"Tabakdose"	"Armenien"	"40.1599"	"44.5222"
"Deutsches Tabak- und Zigarrenmuseum"	"Bünde"	"52.195961"	"8.581675"	"Zigarettendose"	"Armenien"	"40.1599"	"44.5222"
"Deutsches Tabak- und Zigarrenmuseum"	"Bünde"	"52.195961"	"8.581675"	"Silberpfeife"	"Birma"	"19.7591"	"96.1341"
"Deutsches Tabak- und Zigarrenmuseum"	"Bünde"	"52.195961"	"8.581675"	"Silberpfeife"	"Birma"	"19.7591"	"96.1341"
"Deutsches Tabak- und Zigarrenmuseum"	"Bünde"	"52.195961"	"8.581675"	"Silberpfeife"	"Birma"	"19.7591"	"96.1341"
"Deutsches Tabak- und Zigarrenmuseum"	"Bünde"	"52.195961"	"8.581675"	"Silberpfeife"	"Birma"	"19.7591"	"96.1341"
"Deutsches Tabak- und Zigarrenmuseum"	"Bünde"	"52.195961"	"8.581675"	"Tabakdose"	"Armenien"	"40.1599"	"44.5222"
"Deutsches Tabak- und Zigarrenmuseum"	"Bünde"	"52.195961"	"8.581675"	"Silberdose"	"Birma"	"19.7591"	"96.1341"
"Deutsches Tabak- und Zigarrenmuseum"	"Bünde"	"52.195961"	"8.581675"	"Silberdose"	"Birma"	"19.7591"	"96.1341"
"Deutsches Tabak- und Zigarrenmuseum"	"Bünde"	"52.195961"	"8.581675"	"Silberdose"	"Birma"	"19.7591"	"96.1341"
"Deutsches Tabak- und Zigarrenmuseum"	"Bünde"	"52.195961"	"8.581675"	"Zigarettendose"	"Iran (Täbriz)"	"38.0862"	"46.2985"
"Deutsches Tabak- und Zigarrenmuseum"	"Bünde"	"52.195961"	"8.581675"	"Tabakdose"	NA	NA	NA
"Deutsches Tabak- und Zigarrenmuseum"	"Bünde"	"52.195961"	"8.581675"	"Zigarettendose"	"Armenien"	"40.1599"	"44.5222"
"Deutsches Tabak- und Zigarrenmuseum"	"Bünde"	"52.195961"	"8.581675"	"Tabakdose"	"Armenien"	"40.1599"	"44.5222"
"Deutsches Tabak- und Zigarrenmuseum"	"Bünde"	"52.195961"	"8.581675"	"Tabakdose"	"Armenien"	"40.1599"	"44.5222"
"Deutsches Tabak- und Zigarrenmuseum"	"Bünde"	"52.195961"	"8.581675"	"Tabakdose"	"Armenien"	"40.1599"	"44.5222"
"Deutsches Tabak- und Zigarrenmuseum"	"Bünde"	"52.195961"	"8.581675"	"Zigarettendose"	"Armenien"	"40.1599"	"44.5222"
"Deutsches Tabak- und Zigarrenmuseum"	"Bünde"	"52.195961"	"8.581675"	"Zigarettendose"	"Armenien"	"40.1599"	"44.5222"
"Deutsches Tabak- und Zigarrenmuseum"	"Bünde"	"52.195961"	"8.581675"	"Zigarettendose"	"Türkei"	"41.0118"	"28.9672"
"Deutsches Tabak- und Zigarrenmuseum"	"Bünde"	"52.195961"	"8.581675"	"Tabakdose"	"Armenien"	"40.1599"	"44.5222"
"Deutsches Tabak- und Zigarrenmuseum"	"Bünde"	"52.195961"	"8.581675"	"Wasserpfeife"	"China"	"39.9064"	"116.3913"
"Deutsches Tabak- und Zigarrenmuseum"	"Bünde"	"52.195961"	"8.581675"	"Silberpfeife"	"Thailand"	"13.7622"	"100.4940"
"Deutsches Tabak- und Zigarrenmuseum"	"Bünde"	"52.195961"	"8.581675"	"Zigarettendose"	"Türkei"	"41.0118"	"28.9672"
"Deutsches Tabak- und Zigarrenmuseum"	"Bünde"	"52.195961"	"8.581675"	"Pfeife"	"Tibet"	"29.6957"	"91.1714"
"Deutsches Tabak- und Zigarrenmuseum"	"Bünde"	"52.195961"	"8.581675"	"Holzpfeife"	"Indien (Assam)"	"26.4303"	"93.2545"
"Deutsches Tabak- und Zigarrenmuseum"	"Bünde"	"52.195961"	"8.581675"	"Zigarettenspitze"	"osmanisch"	"41.0118"	"28.9672"
"Deutsches Tabak- und Zigarrenmuseum"	"Bünde"	"52.195961"	"8.581675"	"Pfeifenkopf"	"Kamerun (Grasland)"	"3.8414"	"11.4921"
"Deutsches Tabak- und Zigarrenmuseum"	"Bünde"	"52.195961"	"8.581675"	"Pfeifenkopf"	"Kamerun (Grasland)"	"3.8414"	"11.4921"
"Deutsches Tabak- und Zigarrenmuseum"	"Bünde"	"52.195961"	"8.581675"	"Opiumnadel"	"China"	"39.9064"	"116.3913"
"Deutsches Tabak- und Zigarrenmuseum"	"Bünde"	"52.195961"	"8.581675"	"Pfeifenkopf"	"Kamerun (Grasland)"	"3.8414"	"11.4921"
"Deutsches Tabak- und Zigarrenmuseum"	"Bünde"	"52.195961"	"8.581675"	"Tabaksbehälter"	"Kamerun"	"7.405"	"12.287"
"Deutsches Tabak- und Zigarrenmuseum"	"Bünde"	"52.195961"	"8.581675"	"Pfeife"	"Afrika West"	"6.1582"	"1.2406"
"Deutsches Tabak- und Zigarrenmuseum"	"Bünde"	"52.195961"	"8.581675"	"Wasserpfeife"	"Türkei"	"41.0118"	"28.9672"
"Deutsches Tabak- und Zigarrenmuseum"	"Bünde"	"52.195961"	"8.581675"	"Pfeife"	"Kamerun (Grasland)"	"3.8414"	"11.4921"
"Deutsches Tabak- und Zigarrenmuseum"	"Bünde"	"52.195961"	"8.581675"	"Tabakbehälter"	"Borneo"	"-2.3348"	"110.9892"
"Deutsches Tabak- und Zigarrenmuseum"	"Bünde"	"52.195961"	"8.581675"	"Pfeife"	"Salomoninseln (Guadalcanar)"	"-9.4486"	"159.9678"
"Deutsches Tabak- und Zigarrenmuseum"	"Bünde"	"52.195961"	"8.581675"	"Tabakpfeife"	"Salomoninseln (Guadalcanar)"	"-9.4486"	"159.9678"
"Deutsches Tabak- und Zigarrenmuseum"	"Bünde"	"52.195961"	"8.581675"	"Pfeife"	"Salomoninseln (Guadalcanar)"	"-9.4486"	"159.9678"
"Deutsches Tabak- und Zigarrenmuseum"	"Bünde"	"52.195961"	"8.581675"	"zwei
Pfeifenköpfe"	"Tennessee"	"36.1832"	"-86.7803"
"Deutsches Tabak- und Zigarrenmuseum"	"Bünde"	"52.195961"	"8.581675"	"zwei
Pfeifenköpfe"	"Wisconsin"	"43.0778"	"-89.3824"
"Deutsches Tabak- und Zigarrenmuseum"	"Bünde"	"52.195961"	"8.581675"	"Zigarettenspitze"	"Armenien"	"40.1599"	"44.5222"
"Deutsches Tabak- und Zigarrenmuseum"	"Bünde"	"52.195961"	"8.581675"	"Wasserpfeife"	"Nepal"	"27.7091"	"85.3209"
"Deutsches Tabak- und Zigarrenmuseum"	"Bünde"	"52.195961"	"8.581675"	"Bambuspfeife"	"Salomoninseln (Guadalcanar)"	"-9.4486"	"159.9678"
"Deutsches Tabak- und Zigarrenmuseum"	"Bünde"	"52.195961"	"8.581675"	"Pfeifenkopf"	"Kamerun (Grasland)"	"3.8414"	"11.4921"
"Deutsches Tabak- und Zigarrenmuseum"	"Bünde"	"52.195961"	"8.581675"	"Pfeifenkopf"	"Kamerun (Grasland)"	"3.8414"	"11.4921"
"Deutsches Tabak- und Zigarrenmuseum"	"Bünde"	"52.195961"	"8.581675"	"Pfeifenkopf"	"Kamerun (Grasland)"	"3.8414"	"11.4921"
"Deutsches Tabak- und Zigarrenmuseum"	"Bünde"	"52.195961"	"8.581675"	"Pfeifenkopf"	"Kamerun (Grasland)"	"3.8414"	"11.4921"
"Deutsches Tabak- und Zigarrenmuseum"	"Bünde"	"52.195961"	"8.581675"	"Pfeifenkopf"	"Kamerun (Grasland)"	"3.8414"	"11.4921"
"Deutsches Tabak- und Zigarrenmuseum"	"Bünde"	"52.195961"	"8.581675"	"Pfeifenkopf"	"Kamerun (Grasland)"	"3.8414"	"11.4921"
"Deutsches Tabak- und Zigarrenmuseum"	"Bünde"	"52.195961"	"8.581675"	"Goldgewicht"	"Ghana"	"5.5929"	"-0.1754"
"Deutsches Tabak- und Zigarrenmuseum"	"Bünde"	"52.195961"	"8.581675"	"Pfeifenkopf"	"Nordkamerun"	"9.3124"	"13.3941"
"Deutsches Tabak- und Zigarrenmuseum"	"Bünde"	"52.195961"	"8.581675"	"Pfeifenkopf"	"Afrika West"	"6.1582"	"1.2406"
"Deutsches Tabak- und Zigarrenmuseum"	"Bünde"	"52.195961"	"8.581675"	"Wasserpfeife"	"China"	"39.9064"	"116.3913"
"Hellweg-Museum"	"Unna"	"51.53695"	"7.69227"	"Frauen-Schuh (?)"	"China"	"39.9064"	"116.3913"
"Hellweg-Museum"	"Unna"	"51.53695"	"7.69227"	"Bild"	"Japan"	"35.6897"	"139.6922"
"Hellweg-Museum"	"Unna"	"51.53695"	"7.69227"	"Bild"	"Japan"	"35.6897"	"139.6922"
"Hellweg-Museum"	"Unna"	"51.53695"	"7.69227"	"Gefäß"	"Iran"	"35.6922"	"51.3910"
"Hellweg-Museum"	"Unna"	"51.53695"	"7.69227"	"Sanza"	"Afrika Süd / Afrika Zentral"	"-9.5159"	"17.8156"
"Hellweg-Museum"	"Unna"	"51.53695"	"7.69227"	"Schreibtischutensil"	"China"	"39.9064"	"116.3913"
"Hellweg-Museum"	"Unna"	"51.53695"	"7.69227"	"Schreibtischutensil"	"China"	"39.9064"	"116.3913"
"Hellweg-Museum"	"Unna"	"51.53695"	"7.69227"	"Schreibtischutensil"	"China"	"39.9064"	"116.3913"
"Hellweg-Museum"	"Unna"	"51.53695"	"7.69227"	"Schreibtischutensil"	"China"	"39.9064"	"116.3913"
"Hellweg-Museum"	"Unna"	"51.53695"	"7.69227"	"Schreibtischutensil"	"China"	"39.9064"	"116.3913"
"Hellweg-Museum"	"Unna"	"51.53695"	"7.69227"	"Schreibtischutensil"	"China"	"39.9064"	"116.3913"
"Hellweg-Museum"	"Unna"	"51.53695"	"7.69227"	"Schreibtischutensil"	"China"	"39.9064"	"116.3913"
"Hellweg-Museum"	"Unna"	"51.53695"	"7.69227"	"Schreibtischutensil"	"China"	"39.9064"	"116.3913"
"Hellweg-Museum"	"Unna"	"51.53695"	"7.69227"	"Schreibtischutensil"	"China"	"39.9064"	"116.3913"
"Hellweg-Museum"	"Unna"	"51.53695"	"7.69227"	"Schreibtischutensil"	"China"	"39.9064"	"116.3913"
"Hellweg-Museum"	"Unna"	"51.53695"	"7.69227"	"Schreibtischutensil"	"China"	"39.9064"	"116.3913"
"Hellweg-Museum"	"Unna"	"51.53695"	"7.69227"	"Schreibtischutensil"	"China"	"39.9064"	"116.3913"
"Hellweg-Museum"	"Unna"	"51.53695"	"7.69227"	"Schreibtischutensil"	"China"	"39.9064"	"116.3913"
"Hellweg-Museum"	"Unna"	"51.53695"	"7.69227"	"Büste einer Frau"	"Bali"	"-8.6717"	"115.2236"
"Hellweg-Museum"	"Unna"	"51.53695"	"7.69227"	"Tiger-Plastik"	"Indien-Orissa Parlakhimundi (?)"	"18.7803"	"84.0895"
"Hellweg-Museum"	"Unna"	"51.53695"	"7.69227"	"Büste eines Mannes"	"Bali"	"-8.6717"	"115.2236"
"Hellweg-Museum"	"Unna"	"51.53695"	"7.69227"	"Streit -Axt"	"Persien"	"35.6922"	"51.3910"
"Hellweg-Museum"	"Unna"	"51.53695"	"7.69227"	"(Opfer-) Axt"	"Indien"	"28.5635"	"77.1528"
"Hellweg-Museum"	"Unna"	"51.53695"	"7.69227"	"(Opfer-) Axt"	"Indien"	"28.5635"	"77.1528"
"Hellweg-Museum"	"Unna"	"51.53695"	"7.69227"	"Krummdoch (hangar)
mit Scheide"	"Irak"	"33.3224"	"44.3820"
"Hellweg-Museum"	"Unna"	"51.53695"	"7.69227"	"Messer'"	"Asien (?)"	"43.8551"	"87.6316"
"Hellweg-Museum"	"Unna"	"51.53695"	"7.69227"	"Kuttar m. Scheide"	"Indien"	"28.5635"	"77.1528"
"Hellweg-Museum"	"Unna"	"51.53695"	"7.69227"	"Dolch"	"Zaire"	"-4.2695"	"15.2712"
"Hellweg-Museum"	"Unna"	"51.53695"	"7.69227"	"Dolch mit Scheide"	"Persien"	"35.6922"	"51.3910"
"Hellweg-Museum"	"Unna"	"51.53695"	"7.69227"	"Kris-Scheide"	"Sumatra"	"3.6450"	"98.6695"
"Hellweg-Museum"	"Unna"	"51.53695"	"7.69227"	"Scheide"	"Kamerun/ Nigeria /Algerien"	"13.8102"	"8.9875"
"Hellweg-Museum"	"Unna"	"51.53695"	"7.69227"	"sikin -
Scheide"	"Sumatra - Atjeh"	"3.8850"	"96.5571"
"Hellweg-Museum"	"Unna"	"51.53695"	"7.69227"	"Scheide"	"Kamerun/ Nigeria /Algerien"	"13.8102"	"8.9875"
"Hellweg-Museum"	"Unna"	"51.53695"	"7.69227"	"Schwert"	"Afrika"	"0.876"	"17.232"
"Hellweg-Museum"	"Unna"	"51.53695"	"7.69227"	"Scheide"	"Asien (?)"	"43.8551"	"87.6316"
"Hellweg-Museum"	"Unna"	"51.53695"	"7.69227"	"Vase"	"Japan (Satsuma)"	"31.9254"	"130.4829"
"Hellweg-Museum"	"Unna"	"51.53695"	"7.69227"	"Schreibtischutensil"	"China"	"39.9064"	"116.3913"
"Hellweg-Museum"	"Unna"	"51.53695"	"7.69227"	"4 Halter f. Porzellankaffeetassen"	"Syrien/ Irak/Türkei"	"37.0846"	"42.3362"
"Hellweg-Museum"	"Unna"	"51.53695"	"7.69227"	"Teller"	"Indien (Agrar)"	"27.1728"	"78.0088"
"Hellweg-Museum"	"Unna"	"51.53695"	"7.69227"	"Schale"	NA	NA	NA
"Hellweg-Museum"	"Unna"	"51.53695"	"7.69227"	"Platte"	"Süd Amerika"	NA	NA
"Hellweg-Museum"	"Unna"	"51.53695"	"7.69227"	"kleines
Tablett"	"Syrien/Irak/ Türkei"	"37.0846"	"42.3362"
"Hellweg-Museum"	"Unna"	"51.53695"	"7.69227"	"Gong"	"Brunei"	"4.8859"	"114.9366"
"Hellweg-Museum"	"Unna"	"51.53695"	"7.69227"	NA	NA	NA	NA
"Hellweg-Museum"	"Unna"	"51.53695"	"7.69227"	"Keule"	"Afrika Süd/ Afrika SW"	NA	NA
"Hellweg-Museum"	"Unna"	"51.53695"	"7.69227"	"Opium-Pfeife"	"China"	"39.9064"	"116.3913"
"Hellweg-Museum"	"Unna"	"51.53695"	"7.69227"	"Opium-Pfeife"	"China"	"39.9064"	"116.3913"
"Hellweg-Museum"	"Unna"	"51.53695"	"7.69227"	"Opium-Pfeife"	"China"	"39.9064"	"116.3913"
"Hellweg-Museum"	"Unna"	"51.53695"	"7.69227"	"Samurairüstung:
Helm"	"Japan"	"35.6897"	"139.6922"
"Hellweg-Museum"	"Unna"	"51.53695"	"7.69227"	"Samurairüstung:
Helm"	"Japan"	"35.6897"	"139.6922"
"Hellweg-Museum"	"Unna"	"51.53695"	"7.69227"	"Samurairüstung -
Gesichts-u. Halsschutz"	"Japan"	"35.6897"	"139.6922"
"Hellweg-Museum"	"Unna"	"51.53695"	"7.69227"	"Rumpfpanzer -
Rücken (?)"	"Japan"	"35.6897"	"139.6922"
"Hellweg-Museum"	"Unna"	"51.53695"	"7.69227"	"Rumpfpanzer -
Brustteil (?)"	"Japan"	"35.6897"	"139.6922"
"Hellweg-Museum"	"Unna"	"51.53695"	"7.69227"	"Rüstung - linker
Armschutz"	"Japan"	"35.6897"	"139.6922"
"Hellweg-Museum"	"Unna"	"51.53695"	"7.69227"	"Rüstung -
Oberschenkelschutz"	"Japan"	"35.6897"	"139.6922"
"Hellweg-Museum"	"Unna"	"51.53695"	"7.69227"	"Rüstung -
Unterschenkelschutz"	"Japan"	"35.6897"	"139.6922"
"Hellweg-Museum"	"Unna"	"51.53695"	"7.69227"	"Rüstung -
Unterschenkelschutz"	"Japan"	"35.6897"	"139.6922"
"Hellweg-Museum"	"Unna"	"51.53695"	"7.69227"	"Rüstung -
Schulterschutz"	"Japan"	"35.6897"	"139.6922"
"Hellweg-Museum"	"Unna"	"51.53695"	"7.69227"	"Rüstung -
Schulterschutz"	"Japan"	"35.6897"	"139.6922"
"Hellweg-Museum"	"Unna"	"51.53695"	"7.69227"	"Rüstung - rechter
Armschutz"	"Japan"	"35.6897"	"139.6922"
"Hellweg-Museum"	"Unna"	"51.53695"	"7.69227"	"Armband"	"Afrika Nord Ost"	NA	NA
"Hellweg-Museum"	"Unna"	"51.53695"	"7.69227"	"Bastteller/ Deckel•
eines Flechtkorbes"	"Afrika"	NA	NA
"Hellweg-Museum"	"Unna"	"51.53695"	"7.69227"	"Fächer"	"Nigeria"	"9.0694"	"7.4894"
"Hellweg-Museum"	"Unna"	"51.53695"	"7.69227"	"Besatzstücke"	"Japan"	"35.6897"	"139.6922"
"Hellweg-Museum"	"Unna"	"51.53695"	"7.69227"	"Krageneinsatz"	"Japan"	"35.6897"	"139.6922"
"Hellweg-Museum"	"Unna"	"51.53695"	"7.69227"	"Rollbild (Frau)"	"Japan"	"35.6897"	"139.6922"
"Hellweg-Museum"	"Unna"	"51.53695"	"7.69227"	"Rollbild (Mann)"	"Japan"	"35.6897"	"139.6922"
"Hellweg-Museum"	"Unna"	"51.53695"	"7.69227"	"Pfeil"	"Afrika"	"0.876"	"17.232"
"Hellweg-Museum"	"Unna"	"51.53695"	"7.69227"	"Pfeilschaft"	NA	NA	NA
"Hellweg-Museum"	"Unna"	"51.53695"	"7.69227"	"Pfeilschaft"	NA	NA	NA
"Hellweg-Museum"	"Unna"	"51.53695"	"7.69227"	"Pfeilschaft"	NA	NA	NA
"Hellweg-Museum"	"Unna"	"51.53695"	"7.69227"	"Pfeilschaft"	NA	NA	NA
"Hellweg-Museum"	"Unna"	"51.53695"	"7.69227"	"Pfeilschaft"	"wohl Salomonen"	"-9.4486"	"159.9678"
"Hellweg-Museum"	"Unna"	"51.53695"	"7.69227"	"Pfeilschaft"	NA	NA	NA
"Hellweg-Museum"	"Unna"	"51.53695"	"7.69227"	"Pfeilschaft"	NA	NA	NA
"Hellweg-Museum"	"Unna"	"51.53695"	"7.69227"	"Speerspitze"	"Ozeanien"	"-11.4878"	"153.4654"
"Hellweg-Museum"	"Unna"	"51.53695"	"7.69227"	"Pfeilschaft"	"Neuguinea"	"-9.4744"	"147.1600"
"Hellweg-Museum"	"Unna"	"51.53695"	"7.69227"	"Schwert"	"Kamerun/Nigeria/ Algerien"	"13.8102"	"8.9875"
"Hellweg-Museum"	"Unna"	"51.53695"	"7.69227"	"Schwert"	"Kamerun/ Nigeria/ Algerien"	"13.8102"	"8.9875"
"Hellweg-Museum"	"Unna"	"51.53695"	"7.69227"	"sikin panjang"	"Sumatra - Atjeh"	"3.8850"	"96.5571"
"Hellweg-Museum"	"Unna"	"51.53695"	"7.69227"	"Kybermesser mit
Scheide"	"Afghanistan"	"34.5307"	"69.1780"
"Hellweg-Museum"	"Unna"	"51.53695"	"7.69227"	"Kris"	"Mittel-Sumatra"	"0.5316"	"101.4526"
"Hellweg-Museum"	"Unna"	"51.53695"	"7.69227"	"Krummsäbel mit
Scheide"	"Türkei (?)"	"41.0118"	"28.9672"
"Hellweg-Museum"	"Unna"	"51.53695"	"7.69227"	"Schwertklinge (?)"	"Zaire (Kongo)"	"-4.2695"	"15.2712"
"Hellweg-Museum"	"Unna"	"51.53695"	"7.69227"	"Scheide"	"Afrika Ost (Zwischenseengebiet)"	"-5.0167"	"32.8000"
"Hellweg-Museum"	"Unna"	"51.53695"	"7.69227"	"Scheide"	"Afrika Ost (Zwischenseengebiet)"	"-5.0167"	"32.8000"
"Hellweg-Museum"	"Unna"	"51.53695"	"7.69227"	"Ruder"	"Neuguinea"	"-9.4744"	"147.1600"
"Hellweg-Museum"	"Unna"	"51.53695"	"7.69227"	"Gong"	"China"	"39.9064"	"116.3913"
"Hellweg-Museum"	"Unna"	"51.53695"	"7.69227"	"Vogel- Plastik"	"Indien"	"28.5635"	"77.1528"
"Hellweg-Museum"	"Unna"	"51.53695"	"7.69227"	"Reiher-Plastik"	"Indien"	"28.5635"	"77.1528"
"Hellweg-Museum"	"Unna"	"51.53695"	"7.69227"	"Wedel/ Besen"	"Afrika Ost - Küste"	NA	NA
"Hellweg-Museum"	"Unna"	"51.53695"	"7.69227"	NA	NA	NA	NA
"Hellweg-Museum"	"Unna"	"51.53695"	"7.69227"	"Kudu- Plastik"	"Afrika Ost"	"-6.8000"	"39.2833"
"Hellweg-Museum"	"Unna"	"51.53695"	"7.69227"	"Maske"	"Afrika Ost"	"-6.8000"	"39.2833"
"Hellweg-Museum"	"Unna"	"51.53695"	"7.69227"	"Maske"	"Afrika Ost"	"-6.8000"	"39.2833"
"Hellweg-Museum"	"Unna"	"51.53695"	"7.69227"	"Kerzenständer"	"Afrika Süd"	"-33.9291"	"18.4174"
"Hellweg-Museum"	"Unna"	"51.53695"	"7.69227"	"Pokal'"	"Afrika Süd"	"-33.9291"	"18.4174"
"Hellweg-Museum"	"Unna"	"51.53695"	"7.69227"	"\"kleiner deckelloser
Behälter in Faß-Form"	"Afrika Süd"	"-33.9291"	"18.4174"
"Hellweg-Museum"	"Unna"	"51.53695"	"7.69227"	"Becher/ deckellose Dose"	"Afrika Süd"	"-33.9291"	"18.4174"
"Hellweg-Museum"	"Unna"	"51.53695"	"7.69227"	"Behälter mit
Spatel"	"Afrika SW"	"-33.9291"	"18.4174"
"Hellweg-Museum"	"Unna"	"51.53695"	"7.69227"	"Plastik eines
ärtigen Mannes mit
eflügel u. Messer"	"Kenia"	"-1.2903"	"36.8471"
"Hellweg-Museum"	"Unna"	"51.53695"	"7.69227"	"Plastik eines
Mannes mit Stock"	"Kenia"	"-1.2903"	"36.8471"
"Hellweg-Museum"	"Unna"	"51.53695"	"7.69227"	"Plastik eines
trommelnden Jungen"	"Kenia"	"-1.2903"	"36.8471"
"Hellweg-Museum"	"Unna"	"51.53695"	"7.69227"	"Plastik eines
Masaikopfes"	"Kenia"	"-1.2903"	"36.8471"
"Hellweg-Museum"	"Unna"	"51.53695"	"7.69227"	"Feuerwedel ?,
kleine Fahne"	NA	NA	NA
"Hellweg-Museum"	"Unna"	"51.53695"	"7.69227"	"Feuerwedel ?,
kleine Fahne"	NA	NA	NA
"Hellweg-Museum"	"Unna"	"51.53695"	"7.69227"	"Wasserpfeife mit
tänder"	"China"	"39.9064"	"116.3913"
"Hellweg-Museum"	"Unna"	"51.53695"	"7.69227"	"Wasserpfeife mit
Behälter"	"China"	"39.9064"	"116.3913"
"Hellweg-Museum"	"Unna"	"51.53695"	"7.69227"	"Zählbrett f. Spiel
stand"	NA	NA	NA
"Hellweg-Museum"	"Unna"	"51.53695"	"7.69227"	"Deutsch-Südwestaf
rikan. Zeitung IV
21(22.5.19o2)"	"Namibia (Swakopmund)"	"-22.6750"	"14.5311"
"Hellweg-Museum"	"Unna"	"51.53695"	"7.69227"	"Deutsch—Südwestaf—
rikan. Zeitung,IV,
22 (29.5.1902)"	"Namibia (Swakopmund)"	"-22.6750"	"14.5311"
"Hellweg-Museum"	"Unna"	"51.53695"	"7.69227"	"Beilage zur Deutsc
Südwestafr. Zeitun
VI Jg. no. 22"	"Namibia, Swakopmund"	"-22.6750"	"14.5311"
"Hellweg-Museum"	"Unna"	"51.53695"	"7.69227"	"Beilage zur Deutsc
Südwestafr. Zeitun
VI Jg. no. 26 (28.6.1905)"	NA	NA	NA
"Hellweg-Museum"	"Unna"	"51.53695"	"7.69227"	NA	NA	NA	NA
"Hellweg-Museum"	"Unna"	"51.53695"	"7.69227"	NA	NA	NA	NA
"Hellweg-Museum"	"Unna"	"51.53695"	"7.69227"	NA	NA	NA	NA
"Hellweg-Museum"	"Unna"	"51.53695"	"7.69227"	"Deckel/Kappe"	"Asien"	"43.8551"	"87.6316"
"Hellweg-Museum"	"Unna"	"51.53695"	"7.69227"	"Affe aus Kokosnuss"	NA	NA	NA
"Hellweg-Museum"	"Unna"	"51.53695"	"7.69227"	"gedeckeltes Dreifußgerät"	"Namibia/ Angola"	"-17.3914"	"15.9082"
"Hellweg-Museum"	"Unna"	"51.53695"	"7.69227"	"Henkelkörbchen"	NA	NA	NA
"Hellweg-Museum"	"Unna"	"51.53695"	"7.69227"	"Maske"	"Japan"	"35.6897"	"139.6922"
"Hellweg-Museum"	"Unna"	"51.53695"	"7.69227"	"Maske"	"Japan"	"35.6897"	"139.6922"
"Hellweg-Museum"	"Unna"	"51.53695"	"7.69227"	"Pfeifenrohr"	"Zwischenseengebiet"	"-5.0167"	"32.8000"
"Hellweg-Museum"	"Unna"	"51.53695"	"7.69227"	"Holzplättchen"	"Japan"	"35.6897"	"139.6922"
"Hellweg-Museum"	"Unna"	"51.53695"	"7.69227"	"?"	NA	NA	NA
"Hellweg-Museum"	"Unna"	"51.53695"	"7.69227"	"Tablett"	"wohl As: islamisch"	NA	NA
"Hellweg-Museum"	"Unna"	"51.53695"	"7.69227"	"Buddha"	"Thailand"	"13.7622"	"100.4940"
"Hellweg-Museum"	"Unna"	"51.53695"	"7.69227"	"Buddha"	"Thailand"	"13.7622"	"100.4940"
"Hellweg-Museum"	"Unna"	"51.53695"	"7.69227"	"Wedel ?"	NA	NA	NA
"Hellweg-Museum"	"Unna"	"51.53695"	"7.69227"	"Nachbildung einer
Geldmünze Amulett 
Papierbeschwerer"	"China"	"39.9064"	"116.3913"
"Hellweg-Museum"	"Unna"	"51.53695"	"7.69227"	"reliefiertes
Straußenei"	"Äthiopien (?)"	"9.0141"	"38.7608"
"Hellweg-Museum"	"Unna"	"51.53695"	"7.69227"	"Deckel"	"Sf SW"	NA	NA
"Hellweg-Museum"	"Unna"	"51.53695"	"7.69227"	"Chinthe"	"Burma"	"19.7591"	"96.1341"
"Hellweg-Museum"	"Unna"	"51.53695"	"7.69227"	"Chinthe"	"Burma"	"19.7591"	"96.1341"
"Hellweg-Museum"	"Unna"	"51.53695"	"7.69227"	"Schale"	NA	NA	NA
"Hellweg-Museum"	"Unna"	"51.53695"	"7.69227"	"Fächer"	NA	NA	NA
"Hellweg-Museum"	"Unna"	"51.53695"	"7.69227"	"Klappregal"	"Japan"	"35.6897"	"139.6922"
"Hellweg-Museum"	"Unna"	"51.53695"	"7.69227"	"Modell einer
Reisscheune"	"Sumatra -Hochland v.Padang,"	"-0.9158"	"100.3852"
"Hellweg-Museum"	"Unna"	"51.53695"	"7.69227"	"Tablett"	"Japan"	"35.6897"	"139.6922"
"Hellweg-Museum"	"Unna"	"51.53695"	"7.69227"	"Modell einer
Moschee"	"Sumatra -Hochland v.Padang"	"-0.9158"	"100.3852"
"Hellweg-Museum"	"Unna"	"51.53695"	"7.69227"	"Modell eines
Wohnhauses"	"Sumatra -Hochland v.Padang"	"-0.9158"	"100.3852"
"Hellweg-Museum"	"Unna"	"51.53695"	"7.69227"	"Modell eines
Wohnhauses"	"Sumatra -Hochland v.Padang"	"-0.9158"	"100.3852"
"Hellweg-Museum"	"Unna"	"51.53695"	"7.69227"	"Schild"	"Afrika Ost"	"-6.8000"	"39.2833"
"Hellweg-Museum"	"Unna"	"51.53695"	"7.69227"	"Samuraischwert
mit Scheide"	"Japan"	"35.6897"	"139.6922"
"Hellweg-Museum"	"Unna"	"51.53695"	"7.69227"	NA	NA	NA	NA
"Hellweg-Museum"	"Unna"	"51.53695"	"7.69227"	NA	NA	NA	NA
"Hellweg-Museum"	"Unna"	"51.53695"	"7.69227"	NA	NA	NA	NA
"Hellweg-Museum"	"Unna"	"51.53695"	"7.69227"	"Spatel"	NA	NA	NA
"Hellweg-Museum"	"Unna"	"51.53695"	"7.69227"	"Mitgliedsdiplom d. Internat. Burenliga"	"Deutschland"	"52.5173"	"13.3889"
"Hellweg-Museum"	"Unna"	"51.53695"	"7.69227"	"Manifest d. Internat. Burenliga"	"Deutschland"	"52.5173"	"13.3889"
"Hellweg-Museum"	"Unna"	"51.53695"	"7.69227"	"Photoalbum"	"vermutlich China"	"39.9064"	"116.3913"
"Hellweg-Museum"	"Unna"	"51.53695"	"7.69227"	"Photoalbum"	"Japan"	"35.6897"	"139.6922"
"Hellweg-Museum"	"Unna"	"51.53695"	"7.69227"	"Photomappe"	"Japan"	"35.6897"	"139.6922"
"Hellwegmuseum"	"Unna"	"51.53695"	"7.69227"	"Speer"	"Ostafrika"	"-6.8354"	"39.4574"
"Hellwegmuseum"	"Unna"	"51.53695"	"7.69227"	"Speer"	"Ostafrika"	"-6.8354"	"39.4574"
"Hellwegmuseum"	"Unna"	"51.53695"	"7.69227"	"Lanze"	"Südafrika"	"-33.9291"	"18.4174"
"Hellwegmuseum"	"Unna"	"51.53695"	"7.69227"	"Speer"	"Afrika"	"0.876"	"17.232"
"Hellwegmuseum"	"Unna"	"51.53695"	"7.69227"	"Speer"	"Afrika"	"0.876"	"17.232"
"Hellwegmuseum"	"Unna"	"51.53695"	"7.69227"	"Speer"	"Ost-/ Südost-Afrika"	"-17.8309"	"31.0474"
"Hellwegmuseum"	"Unna"	"51.53695"	"7.69227"	"Speer"	"Ostafrika"	"-6.8000"	"39.2833"
"Hellwegmuseum"	"Unna"	"51.53695"	"7.69227"	"Speer"	"Kamerun"	"3.8414"	"11.4921"
"Hellwegmuseum"	"Unna"	"51.53695"	"7.69227"	"Speer"	"Ostafrika"	"-6.8000"	"39.2833"
"Hellwegmuseum"	"Unna"	"51.53695"	"7.69227"	"geschuhter Speer"	"Ostafrika"	"-6.8000"	"39.2833"
"Hellwegmuseum"	"Unna"	"51.53695"	"7.69227"	"geschuhter Speer"	"Ostafrika"	"-6.8000"	"39.2833"
"Hellwegmuseum"	"Unna"	"51.53695"	"7.69227"	"geschuhter Speer"	"Ostafrika"	"-6.8000"	"39.2833"
"Hellwegmuseum"	"Unna"	"51.53695"	"7.69227"	"Speer"	"Ostafrika"	"-6.8000"	"39.2833"
"Hellwegmuseum"	"Unna"	"51.53695"	"7.69227"	"Speer"	"Südafrika"	"-33.9291"	"18.4174"
"Hellwegmuseum"	"Unna"	"51.53695"	"7.69227"	"geschuhter Speer"	"Ostafrika"	"-6.8000"	"39.2833"
"Hellwegmuseum"	"Unna"	"51.53695"	"7.69227"	"Speer"	"Ostafrika"	"-6.8000"	"39.2833"
"Hellwegmuseum"	"Unna"	"51.53695"	"7.69227"	"Speer"	"Afrika"	"0.876"	"17.232"
"Hellwegmuseum"	"Unna"	"51.53695"	"7.69227"	"Speer"	"Ost-/ Südost-Afrika"	"-17.8309"	"31.0474"
"Hellwegmuseum"	"Unna"	"51.53695"	"7.69227"	"Speer"	"Südafrika"	"-33.9291"	"18.4174"
"Hellwegmuseum"	"Unna"	"51.53695"	"7.69227"	"Speer"	"Ostafrika"	"-6.8000"	"39.2833"
"Hellwegmuseum"	"Unna"	"51.53695"	"7.69227"	"Speer"	"Südafrika"	"-33.9291"	"18.4174"
"Hellwegmuseum"	"Unna"	"51.53695"	"7.69227"	"Speer"	"Afrika"	"0.876"	"17.232"
"Hellwegmuseum"	"Unna"	"51.53695"	"7.69227"	"Speer"	"Ostafrika"	"-6.8000"	"39.2833"
"Hellwegmuseum"	"Unna"	"51.53695"	"7.69227"	"Speer"	"Ostafrika"	"-6.8000"	"39.2833"
"Hellwegmuseum"	"Unna"	"51.53695"	"7.69227"	"Speer"	"Ostafrika"	"-6.8000"	"39.2833"
"Hellwegmuseum"	"Unna"	"51.53695"	"7.69227"	"Speer"	"Ostafrika"	"-6.8000"	"39.2833"
"Hellwegmuseum"	"Unna"	"51.53695"	"7.69227"	"Speer"	"Ostafrika"	"-6.8000"	"39.2833"
"Hellwegmuseum"	"Unna"	"51.53695"	"7.69227"	"Pfeil"	NA	NA	NA
"Hellwegmuseum"	"Unna"	"51.53695"	"7.69227"	"Speer"	"Ostafrika"	"-6.8000"	"39.2833"
"Hellwegmuseum"	"Unna"	"51.53695"	"7.69227"	"Speer"	"Ostafrika"	"-6.8000"	"39.2833"
"Hellwegmuseum"	"Unna"	"51.53695"	"7.69227"	"Speer"	"Südafrika"	"-33.9291"	"18.4174"
"Hellwegmuseum"	"Unna"	"51.53695"	"7.69227"	"Speer"	"Ostafrika"	"-6.8000"	"39.2833"
"Hellwegmuseum"	"Unna"	"51.53695"	"7.69227"	"Speer"	"Ostafrika"	"-6.8000"	"39.2833"
"Hellwegmuseum"	"Unna"	"51.53695"	"7.69227"	"Pfeil"	"Neuguinea/ Papua Neuguinea (Aitape Berlinhafen NO-Küste)"	"-3.1510"	"142.3594"
"Hellwegmuseum"	"Unna"	"51.53695"	"7.69227"	"Pfeil"	"Neuguinea/ Papua Neuguinea (Aitape Berlinhafen NO-Küste)"	"-3.1510"	"142.3594"
"Hellwegmuseum"	"Unna"	"51.53695"	"7.69227"	"Pfeil"	"Neuguinea/ Papua Neuguinea (Aitape Berlinhafen NO-Küste)"	"-3.1510"	"142.3594"
"Hellwegmuseum"	"Unna"	"51.53695"	"7.69227"	"Pfeil"	"Neuguinea/ Papua Neuguinea (Aitape Berlinhafen NO-Küste)"	"-3.1510"	"142.3594"
"Hellwegmuseum"	"Unna"	"51.53695"	"7.69227"	"Pfeil"	"Neuguinea/ Papua Neuguinea (Aitape Berlinhafen NO-Küste)"	"-3.1510"	"142.3594"
"Hellwegmuseum"	"Unna"	"51.53695"	"7.69227"	"Pfeil"	"Neuguinea/ Papua Neuguinea (Aitape Berlinhafen NO-Küste)"	"-3.1510"	"142.3594"
"Hellwegmuseum"	"Unna"	"51.53695"	"7.69227"	"Pfeil"	"Neuguinea"	"-3.1510"	"142.3594"
"Hellwegmuseum"	"Unna"	"51.53695"	"7.69227"	"Pfeil"	"Neuguinea/ Papua Neuguinea (Aitape Berlinhafen NO-Küste)"	"-3.1510"	"142.3594"
"Hellwegmuseum"	"Unna"	"51.53695"	"7.69227"	"Pfeil"	"Neuguinea/ Papua Neuguinea (Aitape Berlinhafen NO-Küste)"	"-3.1510"	"142.3594"
"Hellwegmuseum"	"Unna"	"51.53695"	"7.69227"	"Pfeil"	"Neuguinea/ Papua Neuguinea (Aitape Berlinhafen NO-Küste)"	"-3.1510"	"142.3594"
"Hellwegmuseum"	"Unna"	"51.53695"	"7.69227"	"Pfeil"	"Neuguinea/ Papua Neuguinea (NO-Küste)"	"-3.1510"	"142.3594"
"Hellwegmuseum"	"Unna"	"51.53695"	"7.69227"	"Pfeil"	"Neuguinea/ Papua Neuguinea (NO-Küste)"	"-3.1510"	"142.3594"
"Hellwegmuseum"	"Unna"	"51.53695"	"7.69227"	"Pfeil"	"Neuguinea/ Papua Neuguinea (NO-Küste)"	"-3.1510"	"142.3594"
"Hellwegmuseum"	"Unna"	"51.53695"	"7.69227"	"Pfeil"	"Neuguinea/ Papua Neuguinea, NO-Küste, Aitape"	"-3.1510"	"142.3594"
"Hellwegmuseum"	"Unna"	"51.53695"	"7.69227"	"Pfeil"	"Neuguinea"	"-3.1510"	"142.3594"
"Hellwegmuseum"	"Unna"	"51.53695"	"7.69227"	"Pfeil"	"Neuguinea/ Papua Neuguinea (NO-Küste)"	"-3.1510"	"142.3594"
"Hellwegmuseum"	"Unna"	"51.53695"	"7.69227"	"Pfeil"	"Neuguinea/ Papua Neuguinea (NO-Küste)"	"-3.1510"	"142.3594"
"Hellwegmuseum"	"Unna"	"51.53695"	"7.69227"	"Pfeil"	"Oz Me/ Buka (Salömonen)"	NA	NA
"Hellwegmuseum"	"Unna"	"51.53695"	"7.69227"	"Pfeil"	"Neuguinea/ Papua Neuguinea (NO-Küste)"	"-3.1510"	"142.3594"
"Hellwegmuseum"	"Unna"	"51.53695"	"7.69227"	"Pfeil"	"Neuguinea/ Papua Neuguinea (NO-Küste)"	"-3.1510"	"142.3594"
"Hellwegmuseum"	"Unna"	"51.53695"	"7.69227"	"Pfeil"	"Neuguinea/ Papua Neuguinea (NO-Küste)"	"-3.1510"	"142.3594"
"Hellwegmuseum"	"Unna"	"51.53695"	"7.69227"	"Pfeil"	"Neuguinea/ Papua Neuguinea (NO-Küste)"	"-3.1510"	"142.3594"
"Hellwegmuseum"	"Unna"	"51.53695"	"7.69227"	"Pfeil"	"Neuguinea/ Papua Neuguinea ( NO-Küste Aitape Berlinhafen)"	"-3.1510"	"142.3594"
"Hellwegmuseum"	"Unna"	"51.53695"	"7.69227"	"Pfeil"	"Neuguinea, Papua Neuguinea, NO-Küste (Aitape Berlinhafen)"	"-3.1510"	"142.3594"
"Hellwegmuseum"	"Unna"	"51.53695"	"7.69227"	"Pfeil"	"Papua Neuguinea (NO-Küste)"	"-3.1510"	"142.3594"
"Hellwegmuseum"	"Unna"	"51.53695"	"7.69227"	"Speer"	"Ostafrika"	"-6.8000"	"39.2833"
"Hellwegmuseum"	"Unna"	"51.53695"	"7.69227"	"Speer"	"Ostafrika"	"-6.8000"	"39.2833"
"Hellwegmuseum"	"Unna"	"51.53695"	"7.69227"	"Speer"	"Zaire"	"-4.2695"	"15.2712"
"Hellwegmuseum"	"Unna"	"51.53695"	"7.69227"	"Speer"	"Südafrika"	"-33.9291"	"18.4174"
"Hellwegmuseum"	"Unna"	"51.53695"	"7.69227"	"geschuhter Speer"	"Ostafrika"	"-6.8000"	"39.2833"
"Hellwegmuseum"	"Unna"	"51.53695"	"7.69227"	"Speer"	"Südafrika"	"-33.9291"	"18.4174"
"Hellwegmuseum"	"Unna"	"51.53695"	"7.69227"	"Speer"	"Ostafrika"	"-6.8000"	"39.2833"
"Hellwegmuseum"	"Unna"	"51.53695"	"7.69227"	"Speer"	"Kamerun"	"3.8414"	"11.4921"
"Hellwegmuseum"	"Unna"	"51.53695"	"7.69227"	"Speer"	"Angola/Namibia"	"-17.3914"	"15.9082"
"Hellwegmuseum"	"Unna"	"51.53695"	"7.69227"	"Speer"	"Afrika"	"0.876"	"17.232"
"Hellwegmuseum"	"Unna"	"51.53695"	"7.69227"	"Speer"	"Angola/Namibia"	"-17.3914"	"15.9082"
"Hellwegmuseum"	"Unna"	"51.53695"	"7.69227"	"Speer"	"Ostafrika"	"-6.8000"	"39.2833"
"Hellwegmuseum"	"Unna"	"51.53695"	"7.69227"	"Bogen"	"Ostafrika"	"-6.8000"	"39.2833"
"Hellwegmuseum"	"Unna"	"51.53695"	"7.69227"	"Häuptlingsstab/ Zeremonialstab"	"Zaire"	"-4.2695"	"15.2712"
"Hellwegmuseum"	"Unna"	"51.53695"	"7.69227"	"Stab"	NA	NA	NA
"Hellwegmuseum"	"Unna"	"51.53695"	"7.69227"	"Speer"	"Afrika"	"0.876"	"17.232"
"Hellwegmuseum"	"Unna"	"51.53695"	"7.69227"	"Speer"	"Ostafrika"	"-6.8000"	"39.2833"
"Hellwegmuseum"	"Unna"	"51.53695"	"7.69227"	"Speer"	"Ostafrika"	"-6.8000"	"39.2833"
"Hellwegmuseum"	"Unna"	"51.53695"	"7.69227"	"Speer"	"Afrika"	"0.876"	"17.232"
"Hellwegmuseum"	"Unna"	"51.53695"	"7.69227"	"Speerschaft"	"Paupa Neuguinea (NO-Küste)"	"-3.1510"	"142.3594"
"Hellwegmuseum"	"Unna"	"51.53695"	"7.69227"	"Bogen"	"Papua Neuguinea (NO-Küst)"	"-3.1510"	"142.3594"
"Hellwegmuseum"	"Unna"	"51.53695"	"7.69227"	"Bogen"	"Afrika"	"0.876"	"17.232"
"Hellwegmuseum"	"Unna"	"51.53695"	"7.69227"	"Bogen"	"Afrika"	"0.876"	"17.232"
"Hellwegmuseum"	"Unna"	"51.53695"	"7.69227"	"Bogen"	"Papua Neuguinea (NO-Küste)"	"-3.1510"	"142.3594"
"Hellwegmuseum"	"Unna"	"51.53695"	"7.69227"	"Bogen"	"Afrika"	"0.876"	"17.232"
"Hellwegmuseum"	"Unna"	"51.53695"	"7.69227"	"Bogen"	"Afrika (?)"	"0.876"	"17.232"
"Hellwegmuseum"	"Unna"	"51.53695"	"7.69227"	"Bogen"	"Afrika"	"0.876"	"17.232"
"Hellwegmuseum"	"Unna"	"51.53695"	"7.69227"	"Zieraxt"	"Polen"	"52.2340"	"21.0368"
"Hellwegmuseum"	"Unna"	"51.53695"	"7.69227"	"Keule"	"Afrika"	"0.876"	"17.232"
"Hellwegmuseum"	"Unna"	"51.53695"	"7.69227"	"Keule"	"Afrika"	"0.876"	"17.232"
"Hellwegmuseum"	"Unna"	"51.53695"	"7.69227"	"Keule/ Krückstock"	"Afrika"	"0.876"	"17.232"
"Hellwegmuseum"	"Unna"	"51.53695"	"7.69227"	"Paddel"	"Nigeria (Kamerun)"	"6.6501"	"8.7970"
"Hellwegmuseum"	"Unna"	"51.53695"	"7.69227"	"Streitaxt"	"Ostafrika od. Zentral-/ Südafrika"	"0.876"	"17.232"
"Hellwegmuseum"	"Unna"	"51.53695"	"7.69227"	"Zieraxt"	"Polen"	"52.2340"	"21.0368"
"Hellwegmuseum"	"Unna"	"51.53695"	"7.69227"	"gr. Messer"	"Zaire"	"-4.2695"	"15.2712"
"Hellwegmuseum"	"Unna"	"51.53695"	"7.69227"	"Stock"	"Ostafrika"	"-6.8000"	"39.2833"
"Hellwegmuseum"	"Unna"	"51.53695"	"7.69227"	"\"Axt\""	"Sumatra (Malaysia nicht ganz auszuschließen)"	"3.6450"	"98.6695"
"Hellwegmuseum"	"Unna"	"51.53695"	"7.69227"	"Paddel"	"Nigeria (Kamerun)"	"6.6501"	"8.7970"
"Hellwegmuseum"	"Unna"	"51.53695"	"7.69227"	"Sichelmesser"	"Ostafrika (Zwischenseengebiet)"	"-5.0167"	"32.8000"
"Hellwegmuseum"	"Unna"	"51.53695"	"7.69227"	"Sprecherstab"	"Samoa"	"-13.8304"	"-171.7690"
"Hellwegmuseum"	"Unna"	"51.53695"	"7.69227"	"Speerspitze"	"Papua Neuguinea (NO-Küste)"	"-3.1510"	"142.3594"
"Hellwegmuseum"	"Unna"	"51.53695"	"7.69227"	"Dechsel"	"Karolinen"	"6.9194"	"158.1626"
"Hellwegmuseum"	"Unna"	"51.53695"	"7.69227"	"Köcher"	"Westafrika (?)"	"6.1582"	"1.2406"
"Hellwegmuseum"	"Unna"	"51.53695"	"7.69227"	"Milch-, Wassergefäß"	"Ostafrika (Zwischenseengebiet)"	"-5.0167"	"32.8000"
"Hellwegmuseum"	"Unna"	"51.53695"	"7.69227"	"Pfeil"	NA	NA	NA
"Hellwegmuseum"	"Unna"	"51.53695"	"7.69227"	"Pfeil"	NA	NA	NA
"Hellwegmuseum"	"Unna"	"51.53695"	"7.69227"	"Pfeil"	"Südafrika"	"-33.9291"	"18.4174"
"Hellwegmuseum"	"Unna"	"51.53695"	"7.69227"	"Pfeil"	"Ozeanien (N)"	"-11.4878"	"153.4654"
"Hellwegmuseum"	"Unna"	"51.53695"	"7.69227"	"Pfeil"	"Salomonen"	"-9.4486"	"159.9678"
"Hellwegmuseum"	"Unna"	"51.53695"	"7.69227"	"Pfeil"	"Ozeanien (N)"	"-11.4878"	"153.4654"
"Hellwegmuseum"	"Unna"	"51.53695"	"7.69227"	"Pfeil"	NA	NA	NA
"Hellwegmuseum"	"Unna"	"51.53695"	"7.69227"	"Pfeil"	"Westafrika"	"6.1582"	"1.2406"
"Hellwegmuseum"	"Unna"	"51.53695"	"7.69227"	"Pfeil"	"Westafrika (Kanem)"	"9.0500"	"9.4167"
"Hellwegmuseum"	"Unna"	"51.53695"	"7.69227"	"Pfeil"	"Westafrika"	"6.1582"	"1.2406"
"Hellwegmuseum"	"Unna"	"51.53695"	"7.69227"	"Pfeil"	"Westafrika"	"6.1582"	"1.2406"
"Hellwegmuseum"	"Unna"	"51.53695"	"7.69227"	"Pfeil"	NA	NA	NA
"Hellwegmuseum"	"Unna"	"51.53695"	"7.69227"	"Pfeil"	"Westafrika (Kanam)"	"9.0500"	"9.4167"
"Hellwegmuseum"	"Unna"	"51.53695"	"7.69227"	"Pfeil"	NA	NA	NA
"Hellwegmuseum"	"Unna"	"51.53695"	"7.69227"	"Pfeil"	"Togo (French Guinea)"	"7.9623"	"-6.6756"
"Hellwegmuseum"	"Unna"	"51.53695"	"7.69227"	"Pfeil"	"Westafrika"	"6.1582"	"1.2406"
"Hellwegmuseum"	"Unna"	"51.53695"	"7.69227"	"Bogen"	"Ostafrika"	"-6.8000"	"39.2833"
"Hellwegmuseum"	"Unna"	"51.53695"	"7.69227"	"Scheide"	"Zentralafrika (Zaire)"	"-4.2695"	"15.2712"
"Hellwegmuseum"	"Unna"	"51.53695"	"7.69227"	"Paddelspitze"	"Nigeria (Kamerun)"	"6.6501"	"8.7970"
"Hellwegmuseum"	"Unna"	"51.53695"	"7.69227"	"Löffel"	"Afrika"	"0.876"	"17.232"
"Hellwegmuseum"	"Unna"	"51.53695"	"7.69227"	"Löffel"	"Afrika"	"0.876"	"17.232"
"Hellwegmuseum"	"Unna"	"51.53695"	"7.69227"	"Löffel"	"Europa"	"50.0781"	"14.4431"
"Hellwegmuseum"	"Unna"	"51.53695"	"7.69227"	"Löffel"	"China"	"39.9064"	"116.3913"
"Hellwegmuseum"	"Unna"	"51.53695"	"7.69227"	"Löffel"	"Europa"	"50.0781"	"14.4431"
"Hellwegmuseum"	"Unna"	"51.53695"	"7.69227"	"\"Holzrohr\""	"Ostafrika (Zwischenseengebiet)"	"-5.0167"	"32.8000"
"Hellwegmuseum"	"Unna"	"51.53695"	"7.69227"	"Stab, mit einem Ende in Form eines menschl. Kopfes"	"Afrika"	"0.876"	"17.232"
"Hellwegmuseum"	"Unna"	"51.53695"	"7.69227"	"Dolch"	"Ostafrika (Zwischenseengebiet)"	"-5.0167"	"32.8000"
"Hellwegmuseum"	"Unna"	"51.53695"	"7.69227"	"Dolch"	"Ostafrika (Zwischenseengebiet)"	"-5.0167"	"32.8000"
"Hellwegmuseum"	"Unna"	"51.53695"	"7.69227"	"Streitaxt"	"Ostafrika"	"-6.8000"	"39.2833"
"Hellwegmuseum"	"Unna"	"51.53695"	"7.69227"	"Streitaxt"	"Westafrika"	"6.1582"	"1.2406"
"Hellwegmuseum"	"Unna"	"51.53695"	"7.69227"	"Zeremonialaxt"	"Zentralafrika"	"4.3907"	"18.5509"
"Hellwegmuseum"	"Unna"	"51.53695"	"7.69227"	"Axt"	"Kamerun (Nigeria)"	"6.6501"	"8.7970"
"Hellwegmuseum"	"Unna"	"51.53695"	"7.69227"	"Rekade"	"Westafrika (Dahomey)"	"6.4991"	"2.6253"
"Hellwegmuseum"	"Unna"	"51.53695"	"7.69227"	"Rekade"	"Westafrika (Dahomey)"	"6.4991"	"2.6253"
"Hellwegmuseum"	"Unna"	"51.53695"	"7.69227"	"Füllbehälter, Schnupftabaksbehälter"	"Angola/Namibia"	"-17.3914"	"15.9082"
"Hellwegmuseum"	"Unna"	"51.53695"	"7.69227"	"Wurf-Hau-Messer"	"Kamerun"	"3.8414"	"11.4921"
"Hellwegmuseum"	"Unna"	"51.53695"	"7.69227"	"Ankus"	"Indien"	"28.5635"	"77.1528"
"Hellwegmuseum"	"Unna"	"51.53695"	"7.69227"	"Keule"	"Südafrika"	"-33.9291"	"18.4174"
"Hellwegmuseum"	"Unna"	"51.53695"	"7.69227"	"Wedel, Besen"	"Ostafrika (Küste)"	"-6.8000"	"39.2833"
"Hellwegmuseum"	"Unna"	"51.53695"	"7.69227"	"Wasserpfeife"	"Ostafrika"	"-6.8000"	"39.2833"
"Hellwegmuseum"	"Unna"	"51.53695"	"7.69227"	"Kalebasse"	NA	NA	NA
"Hellwegmuseum"	"Unna"	"51.53695"	"7.69227"	"Kalebasse"	NA	NA	NA
"Hellwegmuseum"	"Unna"	"51.53695"	"7.69227"	"Kalebasse"	NA	NA	NA
"Hellwegmuseum"	"Unna"	"51.53695"	"7.69227"	"Kalebasse"	"Südafrika"	"-33.9291"	"18.4174"
"Hellwegmuseum"	"Unna"	"51.53695"	"7.69227"	"Sanza"	"Zentral-/ Südwestafrika"	"-9.5159"	"17.8156"
"Hellwegmuseum"	"Unna"	"51.53695"	"7.69227"	"Schiene"	"Nigeria"	"9.0694"	"7.4879"
"Hellwegmuseum"	"Unna"	"51.53695"	"7.69227"	"Schiene"	"Nigeria"	"9.0694"	"7.4879"
"Hellwegmuseum"	"Unna"	"51.53695"	"7.69227"	"beklebtes Straußenei"	"Staat Sudan"	"15.6006"	"32.5340"
"Hellwegmuseum"	"Unna"	"51.53695"	"7.69227"	"Bootsmodell"	"Italien"	"41.9034"	"12.4949"
"Hellwegmuseum"	"Unna"	"51.53695"	"7.69227"	"Opanken"	"Jugoslawien/ Serbien"	"44.8203"	"20.4394"
"Hellwegmuseum"	"Unna"	"51.53695"	"7.69227"	"Schlitzgong, sog. Holzfisch"	"China"	"39.9064"	"116.3913"
"Hellwegmuseum"	"Unna"	"51.53695"	"7.69227"	"Firmenstempel"	"China"	"39.9064"	"116.3913"
"Hellwegmuseum"	"Unna"	"51.53695"	"7.69227"	"Firmenstempel"	"China"	"39.9064"	"116.3913"
"Hellwegmuseum"	"Unna"	"51.53695"	"7.69227"	"Gefäß"	"Ostasien"	"42.52"	"122.61"
"Hellwegmuseum"	"Unna"	"51.53695"	"7.69227"	"opankenförmiger Achenbecher"	"Jugoslawien/ Serbien"	"44.8203"	"20.4394"
"Hellwegmuseum"	"Unna"	"51.53695"	"7.69227"	"opankenförmiger Achenbecher"	"Jugoslawien/ Serbien"	"44.8203"	"20.4394"
"Hellwegmuseum"	"Unna"	"51.53695"	"7.69227"	"Schildkröte"	NA	NA	NA
"Hellwegmuseum"	"Unna"	"51.53695"	"7.69227"	"Wasserpfeife"	"Asien"	"43.8551"	"87.6316"
"Hellwegmuseum"	"Unna"	"51.53695"	"7.69227"	"Tropenhelm"	"Frankreich/ England"	"50.6488"	"0.9483"
"Hellwegmuseum"	"Unna"	"51.53695"	"7.69227"	"Gafäß (f. Reinigungswasser?)"	"Somali"	"2.0349"	"45.3419"
"Hellwegmuseum"	"Unna"	"51.53695"	"7.69227"	"Tierkopf"	"Togo/ Ghana (?) (gpandu)"	"6.9443"	"0.5232"
"Hellwegmuseum"	"Unna"	"51.53695"	"7.69227"	"2 ibeji-Figuren (weiblich und männlich)"	"Nigeria/ Gegend um Ede"	"7.2944"	"7.6638"
"Hellwegmuseum"	"Unna"	"51.53695"	"7.69227"	"Amulettbehälter"	"Westafrika"	"6.1582"	"1.2406"
"Hellwegmuseum"	"Unna"	"51.53695"	"7.69227"	"Lederschlauch"	NA	NA	NA
"Hellwegmuseum"	"Unna"	"51.53695"	"7.69227"	"Handtrommel (unvollständig)"	"Ostafrika"	"-6.8000"	"39.2833"
"Hellwegmuseum"	"Unna"	"51.53695"	"7.69227"	"Fettbehälter"	"Südwestafrika"	"-22.5586"	"17.0587"
"Hellwegmuseum"	"Unna"	"51.53695"	"7.69227"	"bemaltes Straußenei"	"Südwestafrika"	"-22.5586"	"17.0587"
"Hellwegmuseum"	"Unna"	"51.53695"	"7.69227"	"Schwertgriffende"	"Japan"	"35.6897"	"139.6922"
"Hellwegmuseum"	"Unna"	"51.53695"	"7.69227"	"Gefäß"	"Jugoslawien/ Serbien"	"44.8203"	"20.4394"
"Hellwegmuseum"	"Unna"	"51.53695"	"7.69227"	"Gürtel"	"Zentralafrika"	"4.3907"	"18.5509"
"Hellwegmuseum"	"Unna"	"51.53695"	"7.69227"	"Kalebassenrasselumspannung (?)"	"Afrika (?)"	"0.876"	"17.232"
"Hellwegmuseum"	"Unna"	"51.53695"	"7.69227"	"Köcher"	"Ostafrika"	"-6.8000"	"39.2833"
"Hellwegmuseum"	"Unna"	"51.53695"	"7.69227"	"Trommel"	"Togo/ Ghana"	"6.9443"	"0.5232"
"Hellwegmuseum"	"Unna"	"51.53695"	"7.69227"	"Pfeifgefäß"	"westl. Türkei"	"38.4176"	"27.1455"
"Hellwegmuseum"	"Unna"	"51.53695"	"7.69227"	"Arm-/ Beinreif"	"Karolinen"	"6.9194"	"158.1626"
"Hellwegmuseum"	"Unna"	"51.53695"	"7.69227"	"Kette"	"Karolinen"	"6.9194"	"158.1626"
"Hellwegmuseum"	"Unna"	"51.53695"	"7.69227"	"gestielte Schildkrötenpanzerschale"	"Südosteuropa"	"46.0608"	"14.5459"
"Hellwegmuseum"	"Unna"	"51.53695"	"7.69227"	"Porzellanschalen"	"Europa"	"50.0781"	"14.4431"
"Hellwegmuseum"	"Unna"	"51.53695"	"7.69227"	"Porzellanbecher"	"Tschechoslowakei"	"50.0781"	"14.4431"
"Hellwegmuseum"	"Unna"	"51.53695"	"7.69227"	"kleine Porzellanschale"	"Japan"	"35.6897"	"139.6922"
"Hellwegmuseum"	"Unna"	"51.53695"	"7.69227"	"Nussknacker"	"Jugoslawien"	"44.8203"	"20.4394"
"Hellwegmuseum"	"Unna"	"51.53695"	"7.69227"	"Zigarettenpfeife"	"Bulgarien/ Albanien/ Jugoslawien"	"41.7253"	"21.7694"
"Hellwegmuseum"	"Unna"	"51.53695"	"7.69227"	"Pfeifenfragment"	"Europa"	"50.0781"	"14.4431"
"Hellwegmuseum"	"Unna"	"51.53695"	"7.69227"	"Gürtelspangen"	"Jugoslawien/ Serbien"	"44.8203"	"20.4394"
"Hellwegmuseum"	"Unna"	"51.53695"	"7.69227"	"Plastik einer Frau mit Kind, Plastik eines Mannes (ovambo)"	"Angola/ Namibia"	"-17.3914"	"15.9082"
"Hellwegmuseum"	"Unna"	"51.53695"	"7.69227"	"Rauchutensilien (Pfeife, Pfeifenbehälter, Tabakbeutel)"	"Japan"	"35.6897"	"139.6922"
"Hellwegmuseum"	"Unna"	"51.53695"	"7.69227"	"Betelschere"	"Indien (Anjar)"	"23.0794"	"70.0672"
"Hellwegmuseum"	"Unna"	"51.53695"	"7.69227"	"Maske mit Aufhänger"	"Kamerun (Grasland)"	"35.666"	"140.076"
"Hellwegmuseum"	"Unna"	"51.53695"	"7.69227"	"liegende Frau"	"Westafrika (Dahomey)"	"6.4991"	"2.6253"
"Hellwegmuseum"	"Unna"	"51.53695"	"7.69227"	"Verschluss in Form eines Schriftzeichens"	"Japan"	"35.6897"	"139.6922"
"Hellwegmuseum"	"Unna"	"51.53695"	"7.69227"	"Stöpsel für Wasserflasche"	"Somalia"	"2.0349"	"45.3419"
"Hellwegmuseum"	"Unna"	"51.53695"	"7.69227"	"Unterteil (Nussschale)"	NA	NA	NA
"Hellwegmuseum"	"Unna"	"51.53695"	"7.69227"	"Kamm"	"Afrika"	"0.876"	"17.232"
"Hellwegmuseum"	"Unna"	"51.53695"	"7.69227"	"Scheide"	"Westafrika"	"6.1582"	"1.2406"
"Hellwegmuseum"	"Unna"	"51.53695"	"7.69227"	"Pulverhorn"	"Zentraleuropa"	"50.0781"	"14.4431"
"Hellwegmuseum"	"Unna"	"51.53695"	"7.69227"	"Flasche"	"Westafrika"	"6.1582"	"1.2406"
"Hellwegmuseum"	"Unna"	"51.53695"	"7.69227"	"Flasche"	"Spanien/ Portugal"	"39.4646"	"-6.3901"
"Hellwegmuseum"	"Unna"	"51.53695"	"7.69227"	"Pinselbehälter"	"China"	"39.9064"	"116.3913"
"Hellwegmuseum"	"Unna"	"51.53695"	"7.69227"	"gleicharmige Zungenwage"	"Japan/ Byzanz"	"35.6897"	"139.6922"
"Hellwegmuseum"	"Unna"	"51.53695"	"7.69227"	"Wasserflasche"	"Ajaccio"	"41.9269"	"8.7631"
"Hellwegmuseum"	"Unna"	"51.53695"	"7.69227"	"Kalebasse"	"Jugoslawien/ Slowenien"	"46.0586"	"14.5440"
"Hellwegmuseum"	"Unna"	"51.53695"	"7.69227"	"Feldflasche"	"Ungarn"	"47.5124"	"19.0357"
"Hellwegmuseum"	"Unna"	"51.53695"	"7.69227"	"Lack-Deckelkasten"	"China"	"39.9064"	"116.3913"
"Hellwegmuseum"	"Unna"	"51.53695"	"7.69227"	"Deckelkasten"	"Japan"	"35.6897"	"139.6922"
"Hellwegmuseum"	"Unna"	"51.53695"	"7.69227"	"Deckelkasten"	"Korea"	"37.5711"	"126.9757"
"Hellwegmuseum"	"Unna"	"51.53695"	"7.69227"	"Trinkbecher"	"Jugoslawien/ Bosnien"	"43.8540"	"18.3879"
"Hellwegmuseum"	"Unna"	"51.53695"	"7.69227"	"Armreif"	"China"	"39.9064"	"116.3913"
"Hellwegmuseum"	"Unna"	"51.53695"	"7.69227"	"Pfeife"	"Japan"	"35.6897"	"139.6922"
"Hellwegmuseum"	"Unna"	"51.53695"	"7.69227"	"Flasche"	"Jugoslawien"	"44.8203"	"20.4394"
"Hellwegmuseum"	"Unna"	"51.53695"	"7.69227"	"Strinband / Arm- oder Beinschmuck"	"Papua Neuguinea (NO-Küste)"	"-3.1510"	"142.3594"
"Hellwegmuseum"	"Unna"	"51.53695"	"7.69227"	"30 Spielsteine"	"China"	"39.9064"	"116.3913"
"Hellwegmuseum"	"Unna"	"51.53695"	"7.69227"	"Geomantenkompass"	"China"	"39.9064"	"116.3913"
"Hellwegmuseum"	"Unna"	"51.53695"	"7.69227"	"Geomantenkompass"	"China"	"39.9064"	"116.3913"
"Hellwegmuseum"	"Unna"	"51.53695"	"7.69227"	"Geomantenkompass"	"China"	"39.9064"	"116.3913"
"Hellwegmuseum"	"Unna"	"51.53695"	"7.69227"	"Kette aus Straußeneischale"	"Südwestafrika"	"-22.5586"	"17.0587"
"Hellwegmuseum"	"Unna"	"51.53695"	"7.69227"	NA	NA	NA	NA
"Hellwegmuseum"	"Unna"	"51.53695"	"7.69227"	"Deckelkasten mit Schloss"	"China"	"39.9064"	"116.3913"
"Hellwegmuseum"	"Unna"	"51.53695"	"7.69227"	"Deckelkasten mit Schloss"	"China"	"39.9064"	"116.3913"
"Hellwegmuseum"	"Unna"	"51.53695"	"7.69227"	"Kännchen"	NA	NA	NA
"Hellwegmuseum"	"Unna"	"51.53695"	"7.69227"	"Kanne mit Deckel"	"Tibet"	"29.6957"	"91.1714"
"Hellwegmuseum"	"Unna"	"51.53695"	"7.69227"	"Kanne mit 2 Henkeln"	"China/ Ost Turkestan (Kaschgar)"	"39.4704"	"75.9872"
"Hellwegmuseum"	"Unna"	"51.53695"	"7.69227"	"Deckelpokal"	"Westasien"	"41.8568"	"43.4267"
"Hellwegmuseum"	"Unna"	"51.53695"	"7.69227"	"Minaret Miniatur"	"Sumatra (Padangsche Bovenlanden)"	"-0.9158"	"100.3852"
"Hellwegmuseum"	"Unna"	"51.53695"	"7.69227"	"Becher"	NA	NA	NA
"Hellwegmuseum"	"Unna"	"51.53695"	"7.69227"	"Gefäß"	"Europa"	"50.0781"	"14.4431"
"Hellwegmuseum"	"Unna"	"51.53695"	"7.69227"	"Mokkamühle"	"Südosteuropa"	"46.0608"	"14.5459"
"Hellwegmuseum"	"Unna"	"51.53695"	"7.69227"	"Mokkamühle"	"Südosteuropa"	"46.0608"	"14.5459"
"Hellwegmuseum"	"Unna"	"51.53695"	"7.69227"	"Kännchen (misfa)"	"Syrien/ Irak/ Türkei"	"37.0846"	"42.3362"
"Hellwegmuseum"	"Unna"	"51.53695"	"7.69227"	"Kanne"	"Südosteuropa"	"46.0608"	"14.5459"
"Hellwegmuseum"	"Unna"	"51.53695"	"7.69227"	"Kanne"	"Südosteuropa"	"46.0608"	"14.5459"
"Hellwegmuseum"	"Unna"	"51.53695"	"7.69227"	"Kännchen"	"Südosteuropa"	"46.0608"	"14.5459"
"Hellwegmuseum"	"Unna"	"51.53695"	"7.69227"	"Kanne"	"Jugoslawien/ Bosnien"	"43.8540"	"18.3879"
"Hellwegmuseum"	"Unna"	"51.53695"	"7.69227"	"Gefäß in Öllampenform"	"Asien"	"43.8551"	"87.6316"
"Hellwegmuseum"	"Unna"	"51.53695"	"7.69227"	"Deckeldose (Dose 241, Deckel 211d)"	"Jugoslawien/ Bosnien"	"43.8540"	"18.3879"
"Hellwegmuseum"	"Unna"	"51.53695"	"7.69227"	"Untersetzer, Tellerchen"	"Jugoslawien/ Bosnien"	"43.8540"	"18.3879"
"Hellwegmuseum"	"Unna"	"51.53695"	"7.69227"	"Teller"	"Jugoslawien/ Bosnien"	"43.8540"	"18.3879"
"Hellwegmuseum"	"Unna"	"51.53695"	"7.69227"	"Türklingel (?)"	"Europa"	"50.0781"	"14.4431"
"Hellwegmuseum"	"Unna"	"51.53695"	"7.69227"	"2 Spielsteine (?)"	"Asien"	"43.8551"	"87.6316"
"Hellwegmuseum"	"Unna"	"51.53695"	"7.69227"	"Kaffeekännchen"	"Südosteuropa"	"46.0608"	"14.5459"
"Hellwegmuseum"	"Unna"	"51.53695"	"7.69227"	"Kanne"	"Jugoslawien/ Makedonien"	"41.9946"	"21.4266"
"Hellwegmuseum"	"Unna"	"51.53695"	"7.69227"	"Pokal"	"Indien"	"28.5635"	"77.1528"
"Hellwegmuseum"	"Unna"	"51.53695"	"7.69227"	"Kanne"	"Jugoslawien/ Makedonien"	"41.9946"	"21.4266"
"Hellwegmuseum"	"Unna"	"51.53695"	"7.69227"	"Vase"	"China"	"39.9064"	"116.3913"
"Hellwegmuseum"	"Unna"	"51.53695"	"7.69227"	"Deckelpokal"	"Westasien"	"41.8568"	"43.4267"
